{"type":"FeatureCollection","features":[{"type":"Feature","geometry":{"type":"Point","coordinates":[-1.631,52.456]},"properties":{"gwcode":200,"country_name":"United Kingdom","status":"independent","owner":"200","s":18860101,"e":19211205,"rank":-30}},{"type":"Feature","geometry":{"type":"Point","coordinates":[-1.631,52.456]},"properties":{"gwcode":200,"country_name":"United Kingdom","status":"independent","owner":"200","s":19211206,"e":99991231,"rank":-30}},{"type":"Feature","geometry":{"type":"Point","coordinates":[-7.856,53.108]},"properties":{"gwcode":205,"country_name":"Ireland","status":"independent","owner":"205","s":19211206,"e":99991231,"rank":-9}},{"type":"Feature","geometry":{"type":"Point","coordinates":[6.307,52.891]},"properties":{"gwcode":210,"country_name":"Netherlands","status":"independent","owner":"210","s":18860101,"e":99991231,"rank":-4}},{"type":"Feature","geometry":{"type":"Point","coordinates":[4.756,50.723]},"properties":{"gwcode":211,"country_name":"Belgium","status":"independent","owner":"211","s":18860101,"e":99991231,"rank":-4}},{"type":"Feature","geometry":{"type":"Point","coordinates":[6.017,49.861]},"properties":{"gwcode":212,"country_name":"Luxembourg","status":"independent","owner":"212","s":18860101,"e":99991231,"rank":0}},{"type":"Feature","geometry":{"type":"Point","coordinates":[2.596,46.747]},"properties":{"gwcode":220,"country_name":"France","status":"independent","owner":"220","s":18860101,"e":19190627,"rank":-61}},{"type":"Feature","geometry":{"type":"Point","coordinates":[2.596,46.747]},"properties":{"gwcode":220,"country_name":"France","status":"independent","owner":"220","s":19190628,"e":99991231,"rank":-63}},{"type":"Feature","geometry":{"type":"Point","coordinates":[7.63,46.734]},"properties":{"gwcode":225,"country_name":"Switzerland","status":"independent","owner":"225","s":18860101,"e":99991231,"rank":-5}},{"type":"Feature","geometry":{"type":"Point","coordinates":[-3.481,39.976]},"properties":{"gwcode":230,"country_name":"Spain","status":"independent","owner":"230","s":18860101,"e":99991231,"rank":-52}},{"type":"Feature","geometry":{"type":"Point","coordinates":[-7.782,40.654]},"properties":{"gwcode":235,"country_name":"Portugal","status":"independent","owner":"235","s":18860101,"e":99991231,"rank":-9}},{"type":"Feature","geometry":{"type":"Point","coordinates":[9.294,50.558]},"properties":{"gwcode":255,"country_name":"Germany (Prussia)","status":"independent","owner":"255","s":18860101,"e":19190627,"rank":-70}},{"type":"Feature","geometry":{"type":"Point","coordinates":[9.581,51.161]},"properties":{"gwcode":255,"country_name":"Germany (Prussia)","status":"independent","owner":"255","s":19190628,"e":19200209,"rank":-56}},{"type":"Feature","geometry":{"type":"Point","coordinates":[9.603,51.175]},"properties":{"gwcode":255,"country_name":"Germany (Prussia)","status":"independent","owner":"255","s":19200210,"e":19380929,"rank":-56}},{"type":"Feature","geometry":{"type":"Point","coordinates":[10.404,50.967]},"properties":{"gwcode":255,"country_name":"Germany (Prussia)","status":"independent","owner":"255","s":19380930,"e":19450507,"rank":-59}},{"type":"Feature","geometry":{"type":"Point","coordinates":[9.603,51.175]},"properties":{"gwcode":260,"country_name":"German Federal Republic","status":"independent","owner":"260","s":19901003,"e":99991231,"rank":-46}},{"type":"Feature","geometry":{"type":"Point","coordinates":[8.327,50.849]},"properties":{"gwcode":260,"country_name":"German Federal Republic","status":"independent","owner":"260","s":19490921,"e":19901002,"rank":-31}},{"type":"Feature","geometry":{"type":"Point","coordinates":[8.327,50.849]},"properties":{"gwcode":260,"country_name":"German Federal Republic","status":"occupied","owner":"2","s":19450508,"e":19490920,"rank":-31}},{"type":"Feature","geometry":{"type":"Point","coordinates":[12.545,52.211]},"properties":{"gwcode":265,"country_name":"German Democratic Republic","status":"independent","owner":"265","s":19491005,"e":19901002,"rank":-14}},{"type":"Feature","geometry":{"type":"Point","coordinates":[12.545,52.211]},"properties":{"gwcode":265,"country_name":"German Democratic Republic","status":"occupied","owner":"365","s":19450508,"e":19491004,"rank":-14}},{"type":"Feature","geometry":{"type":"Point","coordinates":[20.15,51.649]},"properties":{"gwcode":290,"country_name":"Poland","status":"independent","owner":"290","s":19181111,"e":19190627,"rank":-17}},{"type":"Feature","geometry":{"type":"Point","coordinates":[20.006,51.699]},"properties":{"gwcode":290,"country_name":"Poland","status":"independent","owner":"290","s":19190628,"e":19190909,"rank":-23}},{"type":"Feature","geometry":{"type":"Point","coordinates":[21.404,51.393]},"properties":{"gwcode":290,"country_name":"Poland","status":"independent","owner":"290","s":19190910,"e":19201006,"rank":-33}},{"type":"Feature","geometry":{"type":"Point","coordinates":[21.311,51.379]},"properties":{"gwcode":290,"country_name":"Poland","status":"independent","owner":"290","s":19201007,"e":19210317,"rank":-37}},{"type":"Feature","geometry":{"type":"Point","coordinates":[23.962,51.318]},"properties":{"gwcode":290,"country_name":"Poland","status":"independent","owner":"290","s":19210318,"e":19450507,"rank":-51}},{"type":"Feature","geometry":{"type":"Point","coordinates":[20.657,51.878]},"properties":{"gwcode":290,"country_name":"Poland","status":"independent","owner":"290","s":19450508,"e":99991231,"rank":-41}},{"type":"Feature","geometry":{"type":"Point","coordinates":[18.936,54.193]},"properties":{"gwcode":291,"country_name":"Danzig","status":"mandate","owner":"0","s":19190628,"e":19380831,"rank":0}},{"type":"Feature","geometry":{"type":"Point","coordinates":[21.257,47.568]},"properties":{"gwcode":300,"country_name":"Austria-Hungary","status":"independent","owner":"300","s":18860101,"e":19081006,"rank":-74}},{"type":"Feature","geometry":{"type":"Point","coordinates":[17.209,47.031]},"properties":{"gwcode":300,"country_name":"Austria-Hungary","status":"independent","owner":"300","s":19081007,"e":19181102,"rank":-80}},{"type":"Feature","geometry":{"type":"Point","coordinates":[14.682,47.239]},"properties":{"gwcode":305,"country_name":"Austria","status":"independent","owner":"305","s":19181103,"e":19190909,"rank":-14}},{"type":"Feature","geometry":{"type":"Point","coordinates":[15.27,47.733]},"properties":{"gwcode":305,"country_name":"Austria","status":"independent","owner":"305","s":19190910,"e":99991231,"rank":-10}},{"type":"Feature","geometry":{"type":"Point","coordinates":[21.025,46.669]},"properties":{"gwcode":310,"country_name":"Hungary","status":"independent","owner":"310","s":19181103,"e":19181130,"rank":-37}},{"type":"Feature","geometry":{"type":"Point","coordinates":[21.336,46.637]},"properties":{"gwcode":310,"country_name":"Hungary","status":"independent","owner":"310","s":19181201,"e":19190909,"rank":-32}},{"type":"Feature","geometry":{"type":"Point","coordinates":[21.192,46.654]},"properties":{"gwcode":310,"country_name":"Hungary","status":"independent","owner":"310","s":19190910,"e":19200603,"rank":-30}},{"type":"Feature","geometry":{"type":"Point","coordinates":[20.393,47.208]},"properties":{"gwcode":310,"country_name":"Hungary","status":"independent","owner":"310","s":19200604,"e":19381101,"rank":-11}},{"type":"Feature","geometry":{"type":"Point","coordinates":[18.173,47.008]},"properties":{"gwcode":310,"country_name":"Hungary","status":"independent","owner":"310","s":19381102,"e":19470209,"rank":-13}},{"type":"Feature","geometry":{"type":"Point","coordinates":[20.393,47.208]},"properties":{"gwcode":310,"country_name":"Hungary","status":"independent","owner":"310","s":19470210,"e":99991231,"rank":-11}},{"type":"Feature","geometry":{"type":"Point","coordinates":[18.004,48.877]},"properties":{"gwcode":315,"country_name":"Czechoslovakia","status":"independent","owner":"315","s":19181111,"e":19380929,"rank":-17}},{"type":"Feature","geometry":{"type":"Point","coordinates":[18.126,48.697]},"properties":{"gwcode":315,"country_name":"Czechoslovakia","status":"independent","owner":"315","s":19380930,"e":19381101,"rank":-14}},{"type":"Feature","geometry":{"type":"Point","coordinates":[15.285,49.827]},"properties":{"gwcode":315,"country_name":"Czechoslovakia","status":"independent","owner":"315","s":19381102,"e":19450507,"rank":-12}},{"type":"Feature","geometry":{"type":"Point","coordinates":[14.304,49.796]},"properties":{"gwcode":315,"country_name":"Czechoslovakia","status":"independent","owner":"315","s":19450508,"e":19470209,"rank":-14}},{"type":"Feature","geometry":{"type":"Point","coordinates":[18.004,48.877]},"properties":{"gwcode":315,"country_name":"Czechoslovakia","status":"independent","owner":"315","s":19470210,"e":19921231,"rank":-16}},{"type":"Feature","geometry":{"type":"Point","coordinates":[14.299,49.779]},"properties":{"gwcode":316,"country_name":"Czech Republic","status":"independent","owner":"316","s":19930101,"e":99991231,"rank":-10}},{"type":"Feature","geometry":{"type":"Point","coordinates":[18.766,48.727]},"properties":{"gwcode":317,"country_name":"Slovakia","status":"independent","owner":"317","s":19930101,"e":99991231,"rank":-6}},{"type":"Feature","geometry":{"type":"Point","coordinates":[11.116,44.533]},"properties":{"gwcode":325,"country_name":"Italy/Sardinia","status":"independent","owner":"325","s":18860101,"e":19190909,"rank":-26}},{"type":"Feature","geometry":{"type":"Point","coordinates":[10.786,45.232]},"properties":{"gwcode":325,"country_name":"Italy/Sardinia","status":"independent","owner":"325","s":19190910,"e":99991231,"rank":-28}},{"type":"Feature","geometry":{"type":"Point","coordinates":[14.445,35.892]},"properties":{"gwcode":338,"country_name":"Malta","status":"colony","owner":"200","s":18860101,"e":19640920,"rank":0}},{"type":"Feature","geometry":{"type":"Point","coordinates":[14.445,35.892]},"properties":{"gwcode":338,"country_name":"Malta","status":"independent","owner":"338","s":19640921,"e":99991231,"rank":0}},{"type":"Feature","geometry":{"type":"Point","coordinates":[20.088,40.667]},"properties":{"gwcode":339,"country_name":"Albania","status":"independent","owner":"339","s":19140307,"e":19200210,"rank":-3}},{"type":"Feature","geometry":{"type":"Point","coordinates":[20.088,40.667]},"properties":{"gwcode":339,"country_name":"Albania","status":"independent","owner":"339","s":19200211,"e":99991231,"rank":-3}},{"type":"Feature","geometry":{"type":"Point","coordinates":[20.088,40.667]},"properties":{"gwcode":339,"country_name":"Albania","status":"independent","owner":"339","s":19130101,"e":19140306,"rank":-3}},{"type":"Feature","geometry":{"type":"Point","coordinates":[21.121,43.952]},"properties":{"gwcode":340,"country_name":"Serbia","status":"independent","owner":"340","s":18860101,"e":19130809,"rank":-6}},{"type":"Feature","geometry":{"type":"Point","coordinates":[21.307,43.601]},"properties":{"gwcode":340,"country_name":"Serbia","status":"independent","owner":"340","s":19130810,"e":19151001,"rank":-10}},{"type":"Feature","geometry":{"type":"Point","coordinates":[21.279,43.556]},"properties":{"gwcode":340,"country_name":"Serbia","status":"independent","owner":"340","s":20060606,"e":20080216,"rank":-10}},{"type":"Feature","geometry":{"type":"Point","coordinates":[20.568,44.295]},"properties":{"gwcode":340,"country_name":"Serbia","status":"independent","owner":"340","s":20080217,"e":99991231,"rank":-9}},{"type":"Feature","geometry":{"type":"Point","coordinates":[21.307,43.601]},"properties":{"gwcode":340,"country_name":"Serbia","status":"occupied","owner":"300","s":19151002,"e":19181130,"rank":-10}},{"type":"Feature","geometry":{"type":"Point","coordinates":[19.076,42.702]},"properties":{"gwcode":341,"country_name":"Montenegro","status":"independent","owner":"341","s":18860101,"e":19130809,"rank":-1}},{"type":"Feature","geometry":{"type":"Point","coordinates":[19.131,42.734]},"properties":{"gwcode":341,"country_name":"Montenegro","status":"independent","owner":"341","s":19130810,"e":19150701,"rank":-2}},{"type":"Feature","geometry":{"type":"Point","coordinates":[19.131,42.734]},"properties":{"gwcode":341,"country_name":"Montenegro","status":"independent","owner":"341","s":20060612,"e":99991231,"rank":-2}},{"type":"Feature","geometry":{"type":"Point","coordinates":[19.131,42.734]},"properties":{"gwcode":341,"country_name":"Montenegro","status":"occupied","owner":"300","s":19150702,"e":19181130,"rank":-2}},{"type":"Feature","geometry":{"type":"Point","coordinates":[21.3,41.501]},"properties":{"gwcode":343,"country_name":"Macedonia (FYROM/North Macedonia)","status":"independent","owner":"343","s":19911120,"e":99991231,"rank":-3}},{"type":"Feature","geometry":{"type":"Point","coordinates":[16.487,45.834]},"properties":{"gwcode":344,"country_name":"Croatia","status":"independent","owner":"344","s":19920427,"e":99991231,"rank":-6}},{"type":"Feature","geometry":{"type":"Point","coordinates":[21.081,43.44]},"properties":{"gwcode":345,"country_name":"Yugoslavia","status":"independent","owner":"345","s":19181201,"e":19190909,"rank":-18}},{"type":"Feature","geometry":{"type":"Point","coordinates":[21.078,43.474]},"properties":{"gwcode":345,"country_name":"Yugoslavia","status":"independent","owner":"345","s":19190910,"e":19200603,"rank":-19}},{"type":"Feature","geometry":{"type":"Point","coordinates":[19.351,44.286]},"properties":{"gwcode":345,"country_name":"Yugoslavia","status":"independent","owner":"345","s":19200604,"e":19911119,"rank":-28}},{"type":"Feature","geometry":{"type":"Point","coordinates":[18.974,44.144]},"properties":{"gwcode":345,"country_name":"Yugoslavia","status":"independent","owner":"345","s":19911120,"e":19920426,"rank":-26}},{"type":"Feature","geometry":{"type":"Point","coordinates":[20.953,43.538]},"properties":{"gwcode":345,"country_name":"Yugoslavia","status":"independent","owner":"345","s":19920427,"e":20060602,"rank":-11}},{"type":"Feature","geometry":{"type":"Point","coordinates":[18.08,44.065]},"properties":{"gwcode":346,"country_name":"Bosnia-Herzegovina","status":"independent","owner":"346","s":19920427,"e":99991231,"rank":-6}},{"type":"Feature","geometry":{"type":"Point","coordinates":[20.898,42.637]},"properties":{"gwcode":347,"country_name":"Kosovo","status":"independent","owner":"347","s":20080220,"e":99991231,"rank":-1}},{"type":"Feature","geometry":{"type":"Point","coordinates":[14.921,46.046]},"properties":{"gwcode":349,"country_name":"Slovenia","status":"independent","owner":"349","s":19920427,"e":99991231,"rank":-2}},{"type":"Feature","geometry":{"type":"Point","coordinates":[21.699,39.058]},"properties":{"gwcode":350,"country_name":"Greece","status":"independent","owner":"350","s":18860101,"e":19130809,"rank":-6}},{"type":"Feature","geometry":{"type":"Point","coordinates":[21.821,39.46]},"properties":{"gwcode":350,"country_name":"Greece","status":"independent","owner":"350","s":19130810,"e":19191126,"rank":-10}},{"type":"Feature","geometry":{"type":"Point","coordinates":[21.819,39.462]},"properties":{"gwcode":350,"country_name":"Greece","status":"independent","owner":"350","s":19191127,"e":99991231,"rank":-11}},{"type":"Feature","geometry":{"type":"Point","coordinates":[33.186,35.032]},"properties":{"gwcode":352,"country_name":"Cyprus","status":"colony","owner":"200","s":19141105,"e":19600815,"rank":-1}},{"type":"Feature","geometry":{"type":"Point","coordinates":[33.186,35.032]},"properties":{"gwcode":352,"country_name":"Cyprus","status":"independent","owner":"352","s":19600816,"e":99991231,"rank":-1}},{"type":"Feature","geometry":{"type":"Point","coordinates":[26.604,43.036]},"properties":{"gwcode":355,"country_name":"Bulgaria","status":"independent","owner":"355","s":18860101,"e":19130809,"rank":-10}},{"type":"Feature","geometry":{"type":"Point","coordinates":[25.361,42.423]},"properties":{"gwcode":355,"country_name":"Bulgaria","status":"independent","owner":"355","s":19130810,"e":19180506,"rank":-12}},{"type":"Feature","geometry":{"type":"Point","coordinates":[25.361,42.423]},"properties":{"gwcode":355,"country_name":"Bulgaria","status":"independent","owner":"355","s":19180507,"e":19191126,"rank":-13}},{"type":"Feature","geometry":{"type":"Point","coordinates":[25.193,42.505]},"properties":{"gwcode":355,"country_name":"Bulgaria","status":"independent","owner":"355","s":19191127,"e":19400906,"rank":-11}},{"type":"Feature","geometry":{"type":"Point","coordinates":[25.193,42.505]},"properties":{"gwcode":355,"country_name":"Bulgaria","status":"independent","owner":"355","s":19400907,"e":99991231,"rank":-12}},{"type":"Feature","geometry":{"type":"Point","coordinates":[28.495,47.503]},"properties":{"gwcode":359,"country_name":"Moldova","status":"independent","owner":"359","s":19910825,"e":99991231,"rank":-4}},{"type":"Feature","geometry":{"type":"Point","coordinates":[27.23,45.092]},"properties":{"gwcode":360,"country_name":"Rumania","status":"independent","owner":"360","s":18860101,"e":19130809,"rank":-15}},{"type":"Feature","geometry":{"type":"Point","coordinates":[27.197,44.834]},"properties":{"gwcode":360,"country_name":"Rumania","status":"independent","owner":"360","s":19130810,"e":19161205,"rank":-16}},{"type":"Feature","geometry":{"type":"Point","coordinates":[27.23,45.092]},"properties":{"gwcode":360,"country_name":"Rumania","status":"independent","owner":"360","s":19181101,"e":19190909,"rank":-15}},{"type":"Feature","geometry":{"type":"Point","coordinates":[27.214,45.103]},"properties":{"gwcode":360,"country_name":"Rumania","status":"independent","owner":"360","s":19190910,"e":19191126,"rank":-16}},{"type":"Feature","geometry":{"type":"Point","coordinates":[27.216,44.831]},"properties":{"gwcode":360,"country_name":"Rumania","status":"independent","owner":"360","s":19191127,"e":19200603,"rank":-17}},{"type":"Feature","geometry":{"type":"Point","coordinates":[25.824,46.098]},"properties":{"gwcode":360,"country_name":"Rumania","status":"independent","owner":"360","s":19200604,"e":19201027,"rank":-29}},{"type":"Feature","geometry":{"type":"Point","coordinates":[26.966,46.243]},"properties":{"gwcode":360,"country_name":"Rumania","status":"independent","owner":"360","s":19201028,"e":19400627,"rank":-34}},{"type":"Feature","geometry":{"type":"Point","coordinates":[24.286,45.773]},"properties":{"gwcode":360,"country_name":"Rumania","status":"independent","owner":"360","s":19400628,"e":19400906,"rank":-28}},{"type":"Feature","geometry":{"type":"Point","coordinates":[24.267,45.781]},"properties":{"gwcode":360,"country_name":"Rumania","status":"independent","owner":"360","s":19400907,"e":99991231,"rank":-28}},{"type":"Feature","geometry":{"type":"Point","coordinates":[27.197,44.834]},"properties":{"gwcode":360,"country_name":"Rumania","status":"independent","owner":"360","s":19161206,"e":19180506,"rank":-16}},{"type":"Feature","geometry":{"type":"Point","coordinates":[27.23,45.092]},"properties":{"gwcode":360,"country_name":"Rumania","status":"independent","owner":"360","s":19180507,"e":19181031,"rank":-15}},{"type":"Feature","geometry":{"type":"Point","coordinates":[45.88,55.971]},"properties":{"gwcode":365,"country_name":"Russia (Soviet Union)","status":"independent","owner":"365","s":19180311,"e":19181110,"rank":-717}},{"type":"Feature","geometry":{"type":"Point","coordinates":[45.885,55.971]},"properties":{"gwcode":365,"country_name":"Russia (Soviet Union)","status":"independent","owner":"365","s":19181111,"e":19200201,"rank":-684}},{"type":"Feature","geometry":{"type":"Point","coordinates":[45.885,55.971]},"properties":{"gwcode":365,"country_name":"Russia (Soviet Union)","status":"independent","owner":"365","s":19200202,"e":19200901,"rank":-684}},{"type":"Feature","geometry":{"type":"Point","coordinates":[45.885,55.971]},"properties":{"gwcode":365,"country_name":"Russia (Soviet Union)","status":"independent","owner":"365","s":19200902,"e":19201027,"rank":-684}},{"type":"Feature","geometry":{"type":"Point","coordinates":[45.885,55.971]},"properties":{"gwcode":365,"country_name":"Russia (Soviet Union)","status":"independent","owner":"365","s":19201028,"e":19210317,"rank":-678}},{"type":"Feature","geometry":{"type":"Point","coordinates":[45.881,55.964]},"properties":{"gwcode":365,"country_name":"Russia (Soviet Union)","status":"independent","owner":"365","s":19210318,"e":19400311,"rank":-665}},{"type":"Feature","geometry":{"type":"Point","coordinates":[45.881,55.964]},"properties":{"gwcode":365,"country_name":"Russia (Soviet Union)","status":"independent","owner":"365","s":19400312,"e":19400601,"rank":-674}},{"type":"Feature","geometry":{"type":"Point","coordinates":[45.86,55.971]},"properties":{"gwcode":365,"country_name":"Russia (Soviet Union)","status":"independent","owner":"365","s":19400602,"e":19400627,"rank":-699}},{"type":"Feature","geometry":{"type":"Point","coordinates":[45.86,55.971]},"properties":{"gwcode":365,"country_name":"Russia (Soviet Union)","status":"independent","owner":"365","s":19400628,"e":19450507,"rank":-705}},{"type":"Feature","geometry":{"type":"Point","coordinates":[45.894,55.971]},"properties":{"gwcode":365,"country_name":"Russia (Soviet Union)","status":"independent","owner":"365","s":19450508,"e":19450814,"rank":-732}},{"type":"Feature","geometry":{"type":"Point","coordinates":[45.894,55.971]},"properties":{"gwcode":365,"country_name":"Russia (Soviet Union)","status":"independent","owner":"365","s":19450815,"e":19910824,"rank":-732}},{"type":"Feature","geometry":{"type":"Point","coordinates":[45.894,55.971]},"properties":{"gwcode":365,"country_name":"Russia (Soviet Union)","status":"independent","owner":"365","s":19910825,"e":19910831,"rank":-700}},{"type":"Feature","geometry":{"type":"Point","coordinates":[45.894,55.971]},"properties":{"gwcode":365,"country_name":"Russia (Soviet Union)","status":"independent","owner":"365","s":19910901,"e":19910905,"rank":-700}},{"type":"Feature","geometry":{"type":"Point","coordinates":[45.89,55.971]},"properties":{"gwcode":365,"country_name":"Russia (Soviet Union)","status":"independent","owner":"365","s":19910906,"e":19911026,"rank":-665}},{"type":"Feature","geometry":{"type":"Point","coordinates":[45.838,55.944]},"properties":{"gwcode":365,"country_name":"Russia (Soviet Union)","status":"independent","owner":"365","s":19911027,"e":19911130,"rank":-655}},{"type":"Feature","geometry":{"type":"Point","coordinates":[46.41,56.787]},"properties":{"gwcode":365,"country_name":"Russia (Soviet Union)","status":"independent","owner":"365","s":19911201,"e":19911220,"rank":-582}},{"type":"Feature","geometry":{"type":"Point","coordinates":[45.459,58.183]},"properties":{"gwcode":365,"country_name":"Russia (Soviet Union)","status":"independent","owner":"365","s":19911221,"e":99991231,"rank":-514}},{"type":"Feature","geometry":{"type":"Point","coordinates":[45.85,55.972]},"properties":{"gwcode":365,"country_name":"Russia (Soviet Union)","status":"independent","owner":"365","s":18860101,"e":19050904,"rank":-804}},{"type":"Feature","geometry":{"type":"Point","coordinates":[45.85,55.972]},"properties":{"gwcode":365,"country_name":"Russia (Soviet Union)","status":"independent","owner":"365","s":19050905,"e":19140416,"rank":-804}},{"type":"Feature","geometry":{"type":"Point","coordinates":[45.85,55.972]},"properties":{"gwcode":365,"country_name":"Russia (Soviet Union)","status":"independent","owner":"365","s":19140417,"e":19171205,"rank":-804}},{"type":"Feature","geometry":{"type":"Point","coordinates":[45.88,55.971]},"properties":{"gwcode":365,"country_name":"Russia (Soviet Union)","status":"independent","owner":"365","s":19171206,"e":19180215,"rank":-732}},{"type":"Feature","geometry":{"type":"Point","coordinates":[45.88,55.971]},"properties":{"gwcode":365,"country_name":"Russia (Soviet Union)","status":"independent","owner":"365","s":19180216,"e":19180302,"rank":-720}},{"type":"Feature","geometry":{"type":"Point","coordinates":[45.88,55.971]},"properties":{"gwcode":365,"country_name":"Russia (Soviet Union)","status":"independent","owner":"365","s":19180303,"e":19180310,"rank":-717}},{"type":"Feature","geometry":{"type":"Point","coordinates":[26.475,58.623]},"properties":{"gwcode":366,"country_name":"Estonia","status":"independent","owner":"366","s":19181111,"e":19400601,"rank":-7}},{"type":"Feature","geometry":{"type":"Point","coordinates":[26.521,58.607]},"properties":{"gwcode":366,"country_name":"Estonia","status":"independent","owner":"366","s":19910906,"e":99991231,"rank":-6}},{"type":"Feature","geometry":{"type":"Point","coordinates":[26.9,56.674]},"properties":{"gwcode":367,"country_name":"Latvia","status":"independent","owner":"367","s":19181118,"e":19400601,"rank":-10}},{"type":"Feature","geometry":{"type":"Point","coordinates":[26.736,56.654]},"properties":{"gwcode":367,"country_name":"Latvia","status":"independent","owner":"367","s":19910906,"e":99991231,"rank":-10}},{"type":"Feature","geometry":{"type":"Point","coordinates":[23.902,55.212]},"properties":{"gwcode":368,"country_name":"Lithuania","status":"independent","owner":"368","s":19220418,"e":19390930,"rank":-8}},{"type":"Feature","geometry":{"type":"Point","coordinates":[23.902,55.212]},"properties":{"gwcode":368,"country_name":"Lithuania","status":"independent","owner":"368","s":19391001,"e":19400601,"rank":-8}},{"type":"Feature","geometry":{"type":"Point","coordinates":[24.804,54.883]},"properties":{"gwcode":368,"country_name":"Lithuania","status":"independent","owner":"368","s":19180216,"e":19201006,"rank":-12}},{"type":"Feature","geometry":{"type":"Point","coordinates":[23.902,55.212]},"properties":{"gwcode":368,"country_name":"Lithuania","status":"independent","owner":"368","s":19201007,"e":19220417,"rank":-8}},{"type":"Feature","geometry":{"type":"Point","coordinates":[24.233,55.11]},"properties":{"gwcode":368,"country_name":"Lithuania","status":"independent","owner":"368","s":19910906,"e":99991231,"rank":-9}},{"type":"Feature","geometry":{"type":"Point","coordinates":[32.525,49.504]},"properties":{"gwcode":369,"country_name":"Ukraine","status":"independent","owner":"369","s":19911226,"e":99991231,"rank":-73}},{"type":"Feature","geometry":{"type":"Point","coordinates":[28.439,53.764]},"properties":{"gwcode":370,"country_name":"Belarus (Byelorussia)","status":"independent","owner":"370","s":19910825,"e":99991231,"rank":-28}},{"type":"Feature","geometry":{"type":"Point","coordinates":[44.745,40.549]},"properties":{"gwcode":371,"country_name":"Armenia","status":"independent","owner":"371","s":19911226,"e":99991231,"rank":-3}},{"type":"Feature","geometry":{"type":"Point","coordinates":[42.441,42.376]},"properties":{"gwcode":372,"country_name":"Georgia","status":"independent","owner":"372","s":19910906,"e":99991231,"rank":-8}},{"type":"Feature","geometry":{"type":"Point","coordinates":[47.173,40.349]},"properties":{"gwcode":373,"country_name":"Azerbaijan","status":"independent","owner":"373","s":19911226,"e":99991231,"rank":-9}},{"type":"Feature","geometry":{"type":"Point","coordinates":[27.423,63.176]},"properties":{"gwcode":375,"country_name":"Finland","status":"independent","owner":"375","s":19171206,"e":19400311,"rank":-72}},{"type":"Feature","geometry":{"type":"Point","coordinates":[27.443,63.316]},"properties":{"gwcode":375,"country_name":"Finland","status":"independent","owner":"375","s":19400312,"e":99991231,"rank":-62}},{"type":"Feature","geometry":{"type":"Point","coordinates":[13.772,61.396]},"properties":{"gwcode":380,"country_name":"Sweden","status":"independent","owner":"380","s":18860101,"e":19050825,"rank":-136}},{"type":"Feature","geometry":{"type":"Point","coordinates":[14.356,58.576]},"properties":{"gwcode":380,"country_name":"Sweden","status":"independent","owner":"380","s":19050826,"e":99991231,"rank":-78}},{"type":"Feature","geometry":{"type":"Point","coordinates":[8.043,60.673]},"properties":{"gwcode":385,"country_name":"Norway","status":"independent","owner":"385","s":19050826,"e":99991231,"rank":-58}},{"type":"Feature","geometry":{"type":"Point","coordinates":[9.398,56.155]},"properties":{"gwcode":390,"country_name":"Denmark","status":"independent","owner":"390","s":18860101,"e":19200209,"rank":-3}},{"type":"Feature","geometry":{"type":"Point","coordinates":[9.145,56.02]},"properties":{"gwcode":390,"country_name":"Denmark","status":"independent","owner":"390","s":19200210,"e":99991231,"rank":-4}},{"type":"Feature","geometry":{"type":"Point","coordinates":[-18.512,64.816]},"properties":{"gwcode":395,"country_name":"Iceland","status":"colony","owner":"390","s":18860101,"e":19181130,"rank":-20}},{"type":"Feature","geometry":{"type":"Point","coordinates":[-18.512,64.816]},"properties":{"gwcode":395,"country_name":"Iceland","status":"colony","owner":"390","s":19181201,"e":19420421,"rank":-20}},{"type":"Feature","geometry":{"type":"Point","coordinates":[-18.512,64.816]},"properties":{"gwcode":395,"country_name":"Iceland","status":"independent","owner":"395","s":19440617,"e":99991231,"rank":-20}},{"type":"Feature","geometry":{"type":"Point","coordinates":[-18.512,64.816]},"properties":{"gwcode":395,"country_name":"Iceland","status":"occupied","owner":"2","s":19420422,"e":19440616,"rank":-20}},{"type":"Feature","geometry":{"type":"Point","coordinates":[-2.179,31.077]},"properties":{"gwcode":430,"country_name":"French West Africa","status":"colony","owner":"220","s":18980614,"e":19021224,"rank":-8}},{"type":"Feature","geometry":{"type":"Point","coordinates":[-6.262,32.011]},"properties":{"gwcode":600,"country_name":"Morocco","status":"independent","owner":"600","s":18860101,"e":19021224,"rank":-31}},{"type":"Feature","geometry":{"type":"Point","coordinates":[-6.262,32.011]},"properties":{"gwcode":600,"country_name":"Morocco","status":"independent","owner":"600","s":19021225,"e":19040101,"rank":-31}},{"type":"Feature","geometry":{"type":"Point","coordinates":[-6.214,32.035]},"properties":{"gwcode":600,"country_name":"Morocco","status":"independent","owner":"600","s":19560302,"e":19560406,"rank":-29}},{"type":"Feature","geometry":{"type":"Point","coordinates":[-6.262,32.011]},"properties":{"gwcode":600,"country_name":"Morocco","status":"independent","owner":"600","s":19560407,"e":19580409,"rank":-31}},{"type":"Feature","geometry":{"type":"Point","coordinates":[-6.262,32.011]},"properties":{"gwcode":600,"country_name":"Morocco","status":"independent","owner":"600","s":19580410,"e":19751113,"rank":-31}},{"type":"Feature","geometry":{"type":"Point","coordinates":[-6.262,32.011]},"properties":{"gwcode":600,"country_name":"Morocco","status":"independent","owner":"600","s":19751114,"e":19790804,"rank":-31}},{"type":"Feature","geometry":{"type":"Point","coordinates":[-6.262,32.011]},"properties":{"gwcode":600,"country_name":"Morocco","status":"independent","owner":"600","s":19790805,"e":99991231,"rank":-31}},{"type":"Feature","geometry":{"type":"Point","coordinates":[-6.262,32.011]},"properties":{"gwcode":600,"country_name":"Morocco","status":"N/A","owner":"600","s":19040102,"e":19041002,"rank":-31}},{"type":"Feature","geometry":{"type":"Point","coordinates":[-6.214,32.035]},"properties":{"gwcode":600,"country_name":"Morocco","status":"N/A","owner":"600","s":19041003,"e":19121126,"rank":-29}},{"type":"Feature","geometry":{"type":"Point","coordinates":[-6.214,32.035]},"properties":{"gwcode":600,"country_name":"Morocco","status":"protectorate","owner":"220","s":19121127,"e":19560301,"rank":-29}},{"type":"Feature","geometry":{"type":"Point","coordinates":[-5.652,35.426]},"properties":{"gwcode":602,"country_name":"Spanish Morocco","status":"protectorate","owner":"230","s":19121127,"e":19560406,"rank":-2}},{"type":"Feature","geometry":{"type":"Point","coordinates":[4.074,33.406]},"properties":{"gwcode":615,"country_name":"Algeria","status":"colony","owner":"220","s":18860101,"e":19010206,"rank":-64}},{"type":"Feature","geometry":{"type":"Point","coordinates":[4.074,33.406]},"properties":{"gwcode":615,"country_name":"Algeria","status":"colony","owner":"220","s":19010207,"e":19021224,"rank":-64}},{"type":"Feature","geometry":{"type":"Point","coordinates":[4.039,33.406]},"properties":{"gwcode":615,"country_name":"Algeria","status":"colony","owner":"220","s":19021225,"e":19190911,"rank":-72}},{"type":"Feature","geometry":{"type":"Point","coordinates":[4.039,33.406]},"properties":{"gwcode":615,"country_name":"Algeria","status":"colony","owner":"220","s":19190912,"e":19620704,"rank":-72}},{"type":"Feature","geometry":{"type":"Point","coordinates":[4.039,33.406]},"properties":{"gwcode":615,"country_name":"Algeria","status":"independent","owner":"615","s":19620705,"e":99991231,"rank":-72}},{"type":"Feature","geometry":{"type":"Point","coordinates":[9.554,35.346]},"properties":{"gwcode":616,"country_name":"Tunisia","status":"independent","owner":"616","s":19560101,"e":99991231,"rank":-15}},{"type":"Feature","geometry":{"type":"Point","coordinates":[9.554,35.346]},"properties":{"gwcode":616,"country_name":"Tunisia","status":"protectorate","owner":"220","s":18860101,"e":19551231,"rank":-15}},{"type":"Feature","geometry":{"type":"Point","coordinates":[21.946,31.437]},"properties":{"gwcode":620,"country_name":"Libya","status":"colony","owner":"325","s":19121018,"e":19190911,"rank":-30}},{"type":"Feature","geometry":{"type":"Point","coordinates":[21.946,31.437]},"properties":{"gwcode":620,"country_name":"Libya","status":"colony","owner":"325","s":19190912,"e":19251205,"rank":-30}},{"type":"Feature","geometry":{"type":"Point","coordinates":[21.946,31.437]},"properties":{"gwcode":620,"country_name":"Libya","status":"colony","owner":"325","s":19251206,"e":19340719,"rank":-30}},{"type":"Feature","geometry":{"type":"Point","coordinates":[21.946,31.437]},"properties":{"gwcode":620,"country_name":"Libya","status":"colony","owner":"325","s":19340720,"e":19430512,"rank":-30}},{"type":"Feature","geometry":{"type":"Point","coordinates":[21.946,31.437]},"properties":{"gwcode":620,"country_name":"Libya","status":"independent","owner":"620","s":19511224,"e":99991231,"rank":-30}},{"type":"Feature","geometry":{"type":"Point","coordinates":[21.946,31.437]},"properties":{"gwcode":620,"country_name":"Libya","status":"mandate","owner":"200","s":19491121,"e":19511223,"rank":-30}},{"type":"Feature","geometry":{"type":"Point","coordinates":[21.946,31.437]},"properties":{"gwcode":620,"country_name":"Libya","status":"occupied","owner":"200","s":19430513,"e":19491120,"rank":-30}},{"type":"Feature","geometry":{"type":"Point","coordinates":[52.65,33.342]},"properties":{"gwcode":630,"country_name":"Iran (Persia)","status":"independent","owner":"630","s":18860101,"e":99991231,"rank":-77}},{"type":"Feature","geometry":{"type":"Point","coordinates":[33.175,39.094]},"properties":{"gwcode":640,"country_name":"Turkey (Ottoman Empire)","status":"independent","owner":"640","s":19231014,"e":99991231,"rank":-79}},{"type":"Feature","geometry":{"type":"Point","coordinates":[39.64,37.463]},"properties":{"gwcode":640,"country_name":"Turkey (Ottoman Empire)","status":"independent","owner":"640","s":18860101,"e":19121017,"rank":-128}},{"type":"Feature","geometry":{"type":"Point","coordinates":[39.64,37.463]},"properties":{"gwcode":640,"country_name":"Turkey (Ottoman Empire)","status":"independent","owner":"640","s":19121018,"e":19121231,"rank":-128}},{"type":"Feature","geometry":{"type":"Point","coordinates":[39.64,37.463]},"properties":{"gwcode":640,"country_name":"Turkey (Ottoman Empire)","status":"independent","owner":"640","s":19130101,"e":19130529,"rank":-128}},{"type":"Feature","geometry":{"type":"Point","coordinates":[39.64,37.463]},"properties":{"gwcode":640,"country_name":"Turkey (Ottoman Empire)","status":"independent","owner":"640","s":19130530,"e":19141102,"rank":-128}},{"type":"Feature","geometry":{"type":"Point","coordinates":[39.64,37.463]},"properties":{"gwcode":640,"country_name":"Turkey (Ottoman Empire)","status":"independent","owner":"640","s":19141103,"e":19180302,"rank":-127}},{"type":"Feature","geometry":{"type":"Point","coordinates":[40.703,37.439]},"properties":{"gwcode":640,"country_name":"Turkey (Ottoman Empire)","status":"independent","owner":"640","s":19180303,"e":19181029,"rank":-130}},{"type":"Feature","geometry":{"type":"Point","coordinates":[40.703,37.439]},"properties":{"gwcode":640,"country_name":"Turkey (Ottoman Empire)","status":"independent","owner":"640","s":19181030,"e":19200425,"rank":-130}},{"type":"Feature","geometry":{"type":"Point","coordinates":[33.175,39.094]},"properties":{"gwcode":640,"country_name":"Turkey (Ottoman Empire)","status":"independent","owner":"640","s":19200426,"e":19231013,"rank":-79}},{"type":"Feature","geometry":{"type":"Point","coordinates":[43.158,33.317]},"properties":{"gwcode":645,"country_name":"Iraq","status":"independent","owner":"645","s":19321003,"e":99991231,"rank":-40}},{"type":"Feature","geometry":{"type":"Point","coordinates":[43.158,33.317]},"properties":{"gwcode":645,"country_name":"Iraq","status":"mandate","owner":"200","s":19201224,"e":19221201,"rank":-40}},{"type":"Feature","geometry":{"type":"Point","coordinates":[43.158,33.317]},"properties":{"gwcode":645,"country_name":"Iraq","status":"mandate","owner":"200","s":19221202,"e":19320922,"rank":-40}},{"type":"Feature","geometry":{"type":"Point","coordinates":[43.158,33.317]},"properties":{"gwcode":645,"country_name":"Iraq","status":"mandate","owner":"200","s":19320923,"e":19321002,"rank":-40}},{"type":"Feature","geometry":{"type":"Point","coordinates":[43.378,35.105]},"properties":{"gwcode":645,"country_name":"Iraq","status":"occupied","owner":"200","s":19200426,"e":19201223,"rank":-27}},{"type":"Feature","geometry":{"type":"Point","coordinates":[25.877,30.795]},"properties":{"gwcode":651,"country_name":"Egypt","status":"colony","owner":"200","s":18990119,"e":19141217,"rank":-12}},{"type":"Feature","geometry":{"type":"Point","coordinates":[25.877,30.795]},"properties":{"gwcode":651,"country_name":"Egypt","status":"independent","owner":"651","s":19220228,"e":19251205,"rank":-12}},{"type":"Feature","geometry":{"type":"Point","coordinates":[25.877,30.795]},"properties":{"gwcode":651,"country_name":"Egypt","status":"independent","owner":"651","s":19251206,"e":19670609,"rank":-12}},{"type":"Feature","geometry":{"type":"Point","coordinates":[25.979,30.795]},"properties":{"gwcode":651,"country_name":"Egypt","status":"independent","owner":"651","s":19670610,"e":19790525,"rank":-10}},{"type":"Feature","geometry":{"type":"Point","coordinates":[25.877,30.795]},"properties":{"gwcode":651,"country_name":"Egypt","status":"independent","owner":"651","s":19790526,"e":99991231,"rank":-12}},{"type":"Feature","geometry":{"type":"Point","coordinates":[25.877,30.795]},"properties":{"gwcode":651,"country_name":"Egypt","status":"protectorate","owner":"200","s":19141218,"e":19220227,"rank":-12}},{"type":"Feature","geometry":{"type":"Point","coordinates":[38.172,35.048]},"properties":{"gwcode":652,"country_name":"Syria","status":"independent","owner":"652","s":19460101,"e":19670609,"rank":-19}},{"type":"Feature","geometry":{"type":"Point","coordinates":[38.189,35.029]},"properties":{"gwcode":652,"country_name":"Syria","status":"independent","owner":"652","s":19670610,"e":99991231,"rank":-18}},{"type":"Feature","geometry":{"type":"Point","coordinates":[38.172,35.048]},"properties":{"gwcode":652,"country_name":"Syria","status":"mandate","owner":"220","s":19201224,"e":19221201,"rank":-19}},{"type":"Feature","geometry":{"type":"Point","coordinates":[38.172,35.048]},"properties":{"gwcode":652,"country_name":"Syria","status":"mandate","owner":"220","s":19221202,"e":19451231,"rank":-19}},{"type":"Feature","geometry":{"type":"Point","coordinates":[38.017,35.203]},"properties":{"gwcode":652,"country_name":"Syria","status":"occupied","owner":"220","s":19200426,"e":19201223,"rank":-18}},{"type":"Feature","geometry":{"type":"Point","coordinates":[35.988,34.14]},"properties":{"gwcode":660,"country_name":"Lebanon","status":"independent","owner":"660","s":19441122,"e":99991231,"rank":-1}},{"type":"Feature","geometry":{"type":"Point","coordinates":[35.988,34.14]},"properties":{"gwcode":660,"country_name":"Lebanon","status":"mandate","owner":"220","s":19201224,"e":19441121,"rank":-1}},{"type":"Feature","geometry":{"type":"Point","coordinates":[35.988,34.14]},"properties":{"gwcode":660,"country_name":"Lebanon","status":"occupied","owner":"220","s":19200426,"e":19201223,"rank":-1}},{"type":"Feature","geometry":{"type":"Point","coordinates":[36.329,30.924]},"properties":{"gwcode":663,"country_name":"Jordan","status":"independent","owner":"663","s":19460525,"e":99991231,"rank":-7}},{"type":"Feature","geometry":{"type":"Point","coordinates":[36.097,31.907]},"properties":{"gwcode":663,"country_name":"Jordan","status":"mandate","owner":"200","s":19201224,"e":19230928,"rank":-3}},{"type":"Feature","geometry":{"type":"Point","coordinates":[36.329,30.924]},"properties":{"gwcode":663,"country_name":"Jordan","status":"mandate","owner":"200","s":19230929,"e":19251101,"rank":-7}},{"type":"Feature","geometry":{"type":"Point","coordinates":[36.329,30.924]},"properties":{"gwcode":663,"country_name":"Jordan","status":"mandate","owner":"200","s":19251102,"e":19460524,"rank":-7}},{"type":"Feature","geometry":{"type":"Point","coordinates":[36.097,31.907]},"properties":{"gwcode":663,"country_name":"Jordan","status":"occupied","owner":"200","s":19200426,"e":19201223,"rank":-3}},{"type":"Feature","geometry":{"type":"Point","coordinates":[34.852,31.18]},"properties":{"gwcode":665,"country_name":"Palestine","status":"mandate","owner":"200","s":19230929,"e":19480513,"rank":-2}},{"type":"Feature","geometry":{"type":"Point","coordinates":[34.852,31.18]},"properties":{"gwcode":665,"country_name":"Palestine","status":"occupied","owner":"200","s":19200426,"e":19201223,"rank":-2}},{"type":"Feature","geometry":{"type":"Point","coordinates":[34.852,31.18]},"properties":{"gwcode":665,"country_name":"Palestine","status":"occupied","owner":"200","s":19201224,"e":19230928,"rank":-2}},{"type":"Feature","geometry":{"type":"Point","coordinates":[34.859,30.897]},"properties":{"gwcode":666,"country_name":"Israel","status":"independent","owner":"666","s":19480514,"e":19670609,"rank":-2}},{"type":"Feature","geometry":{"type":"Point","coordinates":[34.513,30.706]},"properties":{"gwcode":666,"country_name":"Israel","status":"independent","owner":"666","s":19670610,"e":19790525,"rank":-5}},{"type":"Feature","geometry":{"type":"Point","coordinates":[34.868,31.173]},"properties":{"gwcode":666,"country_name":"Israel","status":"independent","owner":"666","s":19790526,"e":99991231,"rank":-3}},{"type":"Feature","geometry":{"type":"Point","coordinates":[39.463,31.044]},"properties":{"gwcode":670,"country_name":"Saudi Arabia","status":"independent","owner":"670","s":19320923,"e":19341231,"rank":-9}},{"type":"Feature","geometry":{"type":"Point","coordinates":[39.463,31.044]},"properties":{"gwcode":670,"country_name":"Saudi Arabia","status":"independent","owner":"670","s":19350101,"e":20000611,"rank":-9}},{"type":"Feature","geometry":{"type":"Point","coordinates":[39.463,31.044]},"properties":{"gwcode":670,"country_name":"Saudi Arabia","status":"independent","owner":"670","s":20000612,"e":99991231,"rank":-9}},{"type":"Feature","geometry":{"type":"Point","coordinates":[47.362,30.042]},"properties":{"gwcode":690,"country_name":"Kuwait","status":"independent","owner":"690","s":19610619,"e":99991231,"rank":0}},{"type":"Feature","geometry":{"type":"Point","coordinates":[54.835,39.716]},"properties":{"gwcode":701,"country_name":"Turkmenistan","status":"independent","owner":"701","s":19911027,"e":99991231,"rank":-10}},{"type":"Feature","geometry":{"type":"Point","coordinates":[52.177,49.243]},"properties":{"gwcode":705,"country_name":"Kazakhstan","status":"independent","owner":"705","s":19911226,"e":19971209,"rank":-56}},{"type":"Feature","geometry":{"type":"Point","coordinates":[52.177,49.243]},"properties":{"gwcode":705,"country_name":"Kazakhstan","status":"independent","owner":"705","s":19971210,"e":99991231,"rank":-56}},{"type":"Feature","geometry":{"type":"Point","coordinates":[17.202,44.44]},"properties":{"gwcode":3461,"country_name":"Bosnia","status":"occupied","owner":"300","s":18860101,"e":19081006,"rank":-5}},{"type":"Feature","geometry":{"type":"Point","coordinates":[17.883,43.384]},"properties":{"gwcode":3462,"country_name":"Herzegovina","status":"occupied","owner":"300","s":18860101,"e":19081006,"rank":-1}},{"type":"Feature","geometry":{"type":"Point","coordinates":[34.375,31.419]},"properties":{"gwcode":6511,"country_name":"Gaza","status":"occupied","owner":"651","s":19480514,"e":19670609,"rank":0}},{"type":"Feature","geometry":{"type":"Point","coordinates":[35.272,32.161]},"properties":{"gwcode":6631,"country_name":"West Bank","status":"occupied","owner":"663","s":19480514,"e":19670609,"rank":-1}}]}