{"type":"FeatureCollection","features":[{"type":"Feature","properties":{"id":"albania","approx":null,"label":[20.101,40.653],"rank":-3},"geometry":{"type":"MultiPolygon","coordinates":[[[[19.2882,42.1831],[19.3993,42.1041],[19.3432,41.9123],[19.3675,41.8488],[19.5981,41.806],[19.5844,41.6058],[19.4426,41.4069],[19.5135,41.2541],[19.413,40.8662],[19.3072,40.6453],[19.4532,40.5639],[19.4511,40.2268],[19.8573,40.0435],[20.0583,39.6843],[20.2201,39.6472],[20.4116,39.8446],[20.3153,39.9918],[20.6676,40.0962],[20.7924,40.4314],[20.95,40.4694],[21.0516,40.6744],[20.9839,40.8559],[20.7406,40.9095],[20.6009,41.0933],[20.4708,41.4995],[20.5893,41.8822],[20.6221,41.9565],[20.5248,42.2132],[20.4306,42.2851],[20.2497,42.3269],[20.0858,42.5484],[19.8224,42.4717],[19.7547,42.641],[19.6087,42.5427],[19.2882,42.1831]]]]}},{"type":"Feature","properties":{"id":"alsace-moselle","approx":"admin","label":[7.439,48.737],"rank":-2},"geometry":{"type":"MultiPolygon","coordinates":[[[[5.9249,49.3896],[5.9275,49.3701],[5.9456,49.3591],[5.9569,49.3471],[5.9701,49.3178],[5.9961,49.3048],[6.004,49.2931],[6.009,49.2687],[6.0197,49.2443],[6.0197,49.2323],[6.0119,49.2224],[5.9958,49.2132],[5.9865,49.2007],[5.9945,49.1843],[6.0155,49.152],[6.0094,49.1309],[5.9921,49.1185],[5.9495,49.1077],[5.9347,49.0986],[5.935,49.084],[5.9543,49.0526],[5.9674,49.0415],[6.0344,49.0201],[6.045,49.0076],[6.0481,48.9874],[6.0634,48.976],[6.1085,48.9663],[6.1172,48.9602],[6.1285,48.9421],[6.1432,48.9346],[6.2875,48.9313],[6.3087,48.9246],[6.3228,48.909],[6.32,48.8984],[6.303,48.8815],[6.2983,48.8591],[6.3127,48.8331],[6.3715,48.7802],[6.3914,48.7798],[6.4332,48.7891],[6.4537,48.7831],[6.4973,48.7611],[6.5207,48.7545],[6.5576,48.755],[6.566,48.7519],[6.5989,48.7157],[6.6244,48.7046],[6.6665,48.6948],[6.7069,48.6681],[6.8684,48.6201],[6.9254,48.6264],[6.9704,48.611],[7.0887,48.5234],[7.1489,48.4999],[7.1277,48.4841],[7.1268,48.4473],[7.1158,48.3779],[7.1043,48.3526],[7.1099,48.3423],[7.1442,48.3321],[7.1758,48.3334],[7.1885,48.331],[7.209,48.3153],[7.2087,48.3034],[7.0832,48.1645],[7.0749,48.1525],[7.0767,48.1397],[7.0869,48.1254],[7.0812,48.1046],[7.0594,48.0847],[7.0281,48.034],[7.0085,48.0103],[6.9598,47.9675],[6.9476,47.9483],[6.9448,47.9266],[6.9344,47.9027],[6.917,47.883],[6.917,47.8683],[6.9254,47.8528],[6.9239,47.8432],[6.9078,47.8307],[6.8689,47.819],[6.8702,47.8023],[6.8827,47.791],[7.0237,47.7357],[7.0503,47.7156],[7.0588,47.6802],[7.0531,47.6531],[7.0265,47.6236],[7.0234,47.606],[7.0373,47.5959],[7.0564,47.5966],[7.0798,47.5909],[7.1342,47.5497],[7.1487,47.532],[7.1505,47.508],[7.1468,47.4989],[7.3857,47.4336],[7.5877,47.5915],[7.5126,47.6949],[7.6226,47.977],[7.5782,48.1171],[7.7485,48.3357],[7.8024,48.576],[8.0923,48.8035],[8.1981,48.9554],[7.9357,49.0489],[7.6692,49.0424],[7.4872,49.1641],[7.0905,49.1274],[6.9297,49.2201],[6.7288,49.1674],[6.5415,49.4241],[6.3617,49.4594],[6.2411,49.5068],[5.9798,49.4486],[5.9309,49.4747],[5.9376,49.456],[5.9422,49.4303],[5.9249,49.3896]]]]}},{"type":"Feature","properties":{"id":"annexed-poland","approx":"line","label":[18.562,52.363],"rank":-12},"geometry":{"type":"MultiPolygon","coordinates":[[[[15.7921,52.4607],[15.8926,52.0728],[16.0365,52.0475],[16.3803,51.8035],[16.5495,51.7847],[16.8563,51.5905],[17.5195,51.6154],[17.8453,51.1335],[18.1775,51.165],[18.4282,51.1086],[18.6027,50.9897],[18.7349,50.7828],[18.5784,50.6201],[18.7593,50.5825],[18.9349,50.3446],[18.6778,50.2196],[18.2589,50.1317],[18.2949,49.9521],[18.5784,49.9098],[18.6345,49.7377],[18.8111,49.6733],[18.8513,49.5224],[18.9751,49.402],[19.1919,49.4142],[19.4479,49.6009],[19.5102,49.5323],[19.52,49.57],[19.6,49.72],[19.57,49.85],[19.58,49.98],[19.55,50.1],[19.62,50.2],[19.65,50.35],[19.55,50.45],[19.38,50.56],[19.2,50.62],[19.05,50.72],[18.98,50.84],[19.1,50.92],[19.28,51.05],[19.4,51.15],[19.52,51.3],[19.6,51.42],[19.7,51.5],[19.82,51.6],[19.88,51.7],[19.85,51.8],[19.78,51.9],[19.8,52.03],[19.85,52.15],[19.95,52.27],[20.1,52.33],[20.19,52.39],[20.5,52.4],[20.7,52.44],[20.9,52.45],[21.05,52.51],[21.2,52.58],[21.35,52.68],[21.5,52.78],[21.65,52.85],[21.85,52.88],[22.03,52.87],[22.032,52.8701],[22,52.95],[21.92,53.1],[21.88,53.23],[21.85,53.33],[21.86,53.44],[21.8831,53.4746],[21.8618,53.4659],[21.3012,53.4555],[20.9246,53.2975],[20.5216,53.3384],[20.4359,53.2468],[20.2931,53.2364],[19.9409,53.4555],[19.7991,53.6135],[18.7614,53.6008],[18.864,53.9228],[18.7815,54.1508],[18.4779,54.1043],[18.2198,54.2312],[18.5953,54.4278],[18.5668,54.5505],[18.3362,54.8358],[18.0368,54.8335],[18.0082,54.5458],[17.5513,54.2515],[17.6454,54.0573],[17.2381,54.0761],[17.2318,53.9322],[17.4888,53.7381],[17.4264,53.5876],[17.1324,53.2623],[16.925,53.2374],[16.5305,52.8928],[16.0989,52.8989],[15.9423,52.849],[15.7921,52.4607]]],[[[22.56,54.2707],[22.6002,54.0723],[22.7642,53.9398],[22.7163,53.8048],[22.8,53.8],[22.98,53.84],[23.15,53.87],[23.4,53.9],[23.6277,53.9455],[23.5089,53.9534],[23.4581,54.1743],[22.9948,54.3859],[22.7811,54.3704],[22.56,54.2707]]]]}},{"type":"Feature","properties":{"id":"austria","approx":null,"label":[15.341,47.764],"rank":-10},"geometry":{"type":"MultiPolygon","coordinates":[[[[9.5373,47.2793],[9.6039,47.0645],[9.8726,47.0231],[10.1095,46.8501],[10.3909,47.0024],[10.4724,46.8699],[10.6797,46.8736],[11.0171,46.7735],[11.1769,46.9672],[11.4836,47.0142],[11.7608,46.978],[12.186,47.0946],[12.1606,46.9282],[12.441,46.6907],[13.1761,46.5751],[13.7188,46.522],[14.1536,46.4425],[14.5449,46.4077],[14.8157,46.5182],[14.8676,46.6132],[15.406,46.6527],[15.9878,46.7551],[16.1116,46.8699],[16.303,47.0114],[16.5051,47.0067],[16.4205,47.2102],[16.7135,47.544],[16.4501,47.6982],[16.6352,47.7603],[16.7642,47.6855],[17.0541,47.7095],[17.0604,47.8769],[17.1736,48.0165],[16.8446,48.3621],[16.9462,48.6192],[16.8922,48.726],[16.4585,48.811],[16.3327,48.733],[16.0608,48.7603],[15.3595,48.9845],[15.0284,49.0188],[14.9268,48.7894],[14.6116,48.6286],[14.2784,48.5826],[13.8341,48.7734],[13.7262,48.5158],[13.4427,48.5605],[13.3951,48.3663],[12.8715,48.2027],[12.7668,48.0823],[13.009,47.8543],[13.0968,47.6489],[13.0534,47.4975],[12.807,47.5548],[12.7371,47.6827],[12.2008,47.6573],[11.6836,47.5849],[11.2964,47.4289],[10.9822,47.3997],[10.9092,47.5182],[10.6913,47.5539],[10.3423,47.3179],[9.8038,47.5934],[9.5722,47.5389],[9.6705,47.3908],[9.5373,47.2793]]]]}},{"type":"Feature","properties":{"id":"belgium","approx":"admin","label":[4.572,50.691],"rank":-6},"geometry":{"type":"MultiPolygon","coordinates":[[[[1.5255,50.3166],[1.5428,50.303],[1.5431,50.31],[1.5515,50.3491],[1.572,50.3757],[1.595,50.3727],[1.6039,50.369],[1.6309,50.3477],[1.6537,50.339],[1.6806,50.3387],[1.7418,50.354],[1.7826,50.3573],[1.8196,50.3547],[1.8384,50.3454],[1.8599,50.3266],[1.8871,50.3138],[1.8986,50.3141],[1.9215,50.3276],[1.9386,50.329],[1.9521,50.3199],[1.9351,50.3021],[1.936,50.2964],[2.0281,50.2644],[2.0566,50.2485],[2.0578,50.2352],[2.0693,50.2185],[2.0852,50.2079],[2.1129,50.2031],[2.1745,50.2054],[2.2,50.2097],[2.2404,50.2102],[2.266,50.2167],[2.2885,50.2178],[2.3098,50.224],[2.3157,50.2372],[2.3329,50.2379],[2.3549,50.2165],[2.3718,50.2168],[2.3836,50.2261],[2.4103,50.2248],[2.456,50.2087],[2.4679,50.1942],[2.4484,50.1828],[2.4154,50.1706],[2.3941,50.1594],[2.3748,50.1358],[2.3801,50.1098],[2.3959,50.096],[2.4203,50.101],[2.433,50.1193],[2.458,50.1276],[2.4812,50.1276],[2.5188,50.1234],[2.55,50.1344],[2.5743,50.1294],[2.5678,50.112],[2.5849,50.1027],[2.6285,50.0975],[2.6499,50.0919],[2.6768,50.0799],[2.6988,50.0842],[2.696,50.0945],[2.6991,50.1205],[2.7106,50.1286],[2.7284,50.1211],[2.7534,50.0985],[2.7628,50.0846],[2.7639,50.072],[2.7427,50.0477],[2.7474,50.0401],[2.7663,50.0384],[2.7868,50.0473],[2.8229,50.0684],[2.8403,50.0689],[2.8493,50.0575],[2.8489,50.0285],[2.8524,50.0206],[2.8682,50.0185],[2.8888,50.0296],[2.9063,50.0343],[2.9451,50.0352],[2.9646,50.0381],[2.9759,50.0531],[2.9736,50.0678],[2.9896,50.0766],[3.0318,50.0726],[3.0883,50.05],[3.157,50.0187],[3.2259,50.029],[3.2571,50.0283],[3.3162,50.0183],[3.3301,50.0198],[3.362,50.0324],[3.3837,50.0301],[3.4078,50.0224],[3.4486,50.0154],[3.4779,50.0191],[3.501,50.0296],[3.5268,50.0363],[3.5547,50.0495],[3.5735,50.0489],[3.5971,50.04],[3.6295,50.038],[3.6832,50.0593],[3.7083,50.0592],[3.7516,50.0512],[3.8539,50.043],[3.8634,50.0397],[3.8861,50.0209],[3.9057,50.0217],[3.9425,50.0384],[3.9749,50.0414],[3.9859,50.0306],[3.985,50.0006],[3.9969,49.9921],[4.0811,49.9709],[4.0994,49.969],[4.1317,49.975],[4.1877,49.9555],[4.2159,49.9544],[4.2477,49.9574],[4.2509,49.9682],[4.2485,49.987],[4.4576,49.9394],[4.8205,49.993],[4.9908,49.8035],[5.4329,49.6037],[5.5229,49.5101],[5.8011,49.544],[5.9005,49.6404],[5.7344,49.835],[5.9735,50.1702],[6.1258,50.1279],[6.3892,50.3211],[6.2654,50.6131],[6.0116,50.7574],[5.6953,50.7593],[5.6519,50.8749],[5.8476,51.1533],[5.508,51.2943],[5.2394,51.2623],[4.7665,51.4998],[4.648,51.4231],[4.3952,51.4513],[4.2524,51.3752],[4.2387,51.3502],[3.952,51.2144],[3.3713,51.3738],[3.1036,51.315],[2.5483,51.0926],[1.9432,50.9953],[1.6248,50.8778],[1.5255,50.3166]]]]}},{"type":"Feature","properties":{"id":"bohemia-moravia","approx":"line","label":[15.271,49.825],"rank":-7},"geometry":{"type":"MultiPolygon","coordinates":[[[[13.1402,49.3776],[13.3158,49.3146],[13.5538,49.1143],[13.942,49.0268],[14.2551,49.0391],[14.3175,48.9267],[14.6179,48.8266],[14.9268,48.7894],[15.0284,49.0188],[15.3595,48.9845],[16.0608,48.7603],[16.3327,48.733],[16.4585,48.811],[16.8922,48.726],[16.9462,48.6192],[17.1123,48.8317],[17.712,48.8562],[18.0749,49.0419],[18.2113,49.2864],[18.3827,49.3329],[18.5657,49.4937],[18.5865,49.4958],[18.55,49.6],[18.47,49.7],[18.42,49.78],[18.37,49.86],[18.3,49.9],[18.3,49.9513],[18.2949,49.9521],[18.1732,50.0024],[17.968,49.631],[17.436,49.6686],[17.016,49.7748],[16.7939,49.6686],[16.6405,49.8439],[16.8245,49.9375],[16.7632,50.127],[16.5876,50.1401],[16.3104,50.5007],[16.0957,50.5167],[15.9201,50.4415],[15.7699,50.5045],[15.5943,50.6982],[15.2981,50.7334],[14.931,50.6422],[14.8189,50.5167],[14.5174,50.4669],[14.418,50.5543],[13.8415,50.5294],[13.6289,50.4542],[13.7421,50.2412],[13.6162,50.1538],[13.2661,50.0658],[13.3655,49.7654],[13.3285,49.6277],[13.1529,49.5525],[13.1402,49.3776]]]]}},{"type":"Feature","properties":{"id":"carpathian-ruthenia","approx":null,"label":[22.713,48.54],"rank":-2},"geometry":{"type":"MultiPolygon","coordinates":[[[[22.1506,48.4105],[22.6055,48.1167],[22.7906,48.1167],[22.8953,47.9545],[23.2603,48.0903],[23.4105,48.0005],[24.0325,47.9559],[24.2472,47.9037],[24.5127,47.9554],[24.5783,48.0753],[24.3932,48.3489],[24.133,48.4063],[23.5776,48.7264],[23.1661,48.7885],[22.9609,48.8712],[22.8424,49.0104],[22.5632,49.0833],[22.3114,48.6756],[22.1601,48.5783],[22.1506,48.4105]]]]}},{"type":"Feature","properties":{"id":"corsica","approx":null,"label":[9.084,42.249],"rank":-1},"geometry":{"type":"MultiPolygon","coordinates":[[[[8.5704,42.2216],[8.6593,42.0082],[8.7809,41.9264],[8.7259,41.7294],[8.7904,41.5578],[9.2199,41.3674],[9.3987,41.6988],[9.4251,41.9748],[9.5521,42.1182],[9.5076,42.5728],[9.4473,42.6828],[9.46,42.988],[9.3469,43.0002],[9.3416,42.7383],[9.1173,42.7294],[8.7185,42.5705],[8.5757,42.3838],[8.5704,42.2216]]]]}},{"type":"Feature","properties":{"id":"denmark","approx":null,"label":[9.137,56.029],"rank":-4},"geometry":{"type":"MultiPolygon","coordinates":[[[[8.0933,55.5561],[8.5947,55.4423],[8.6603,55.2942],[8.6646,54.9129],[8.6931,54.896],[8.7016,54.8941],[8.7132,54.8922],[8.928,54.9073],[9.3775,54.8278],[9.4146,54.8335],[9.4463,54.8274],[9.7657,54.8965],[9.4611,55.1221],[9.7107,55.2411],[9.6102,55.3563],[9.5901,55.4183],[9.8186,55.6045],[9.9932,55.7051],[10.2798,56.0187],[10.7453,56.164],[10.9621,56.4423],[10.7865,56.534],[10.5305,56.5081],[10.2788,56.597],[10.2693,56.9129],[9.9741,57.0718],[9.3024,56.9999],[9.111,56.7921],[8.9597,56.8052],[8.5196,56.5429],[8.1208,56.5481],[8.1409,56.109],[8.3113,56.0511],[8.3959,55.8946],[8.1917,55.8109],[8.0933,55.5561]]],[[[8.2351,56.7465],[8.4636,56.6976],[8.6762,56.9481],[9.1152,57.0459],[9.2495,56.9956],[10.0048,57.0897],[10.337,56.9919],[10.5305,57.2227],[10.4427,57.6092],[9.9572,57.5861],[9.5806,57.241],[9.3913,57.1522],[8.618,57.1216],[8.2351,56.7465]]],[[[9.7488,55.5401],[9.8969,55.2829],[10.1529,55.0845],[10.4978,55.0291],[10.7347,55.0653],[10.831,55.2994],[10.7453,55.4917],[10.319,55.6144],[9.8736,55.5081],[9.7488,55.5401]]],[[[11.014,54.8932],[11.0245,54.7601],[11.4625,54.6205],[11.7798,54.6403],[11.8623,54.7446],[11.2393,54.9571],[11.014,54.8932]]],[[[11.0859,55.6666],[11.252,55.1988],[11.7407,55.1988],[11.7301,55.0606],[11.8962,54.9877],[12.1649,54.9966],[12.1786,55.1184],[12.4621,55.2895],[12.1913,55.4616],[12.2537,55.5523],[12.5975,55.7028],[12.57,55.9942],[12.2823,56.1282],[11.9173,55.9284],[11.7999,55.6854],[11.6063,55.9364],[11.3429,55.7474],[11.0859,55.6666]]],[[[11.7534,54.857],[11.9702,54.6995],[12.1628,54.833],[11.8486,54.9552],[11.7534,54.857]]],[[[14.6782,55.101],[15.077,55.0013],[15.149,55.1292],[14.7449,55.2942],[14.6782,55.101]]]]}},{"type":"Feature","properties":{"id":"eastern-poland","approx":"line","label":[25.368,52.079],"rank":-25},"geometry":{"type":"MultiPolygon","coordinates":[[[[21.85,53.33],[21.88,53.23],[21.92,53.1],[22,52.95],[22.06,52.8],[22.08,52.7],[22.2,52.66],[22.32,52.67],[22.45,52.57],[22.58,52.45],[22.66,52.4],[22.85,52.36],[23.04,52.33],[23.15,52.25],[23.22,52.19],[23.45,52.15],[23.62,52.08],[23.65,51.95],[23.6,51.91],[23.62,51.8],[23.55,51.76],[23.6,51.65],[23.55,51.55],[23.65,51.4],[23.7,51.3],[23.8,51.17],[23.95,51.05],[24.08,50.92],[24.15,50.85],[24.1,50.72],[24.15,50.58],[24.2,50.47],[23.95,50.43],[23.7,50.38],[23.55,50.3],[23.2,50.25],[22.95,50.2],[22.8,50.12],[22.85,50],[22.83,49.95],[22.78,49.79],[22.65,49.77],[22.55,49.78],[22.39,49.83],[22.23,49.82],[22.17,49.75],[22.18,49.65],[22.21,49.56],[22.33,49.47],[22.45,49.39],[22.55,49.33],[22.62,49.22],[22.6809,49.0525],[22.8424,49.0104],[22.9609,48.8712],[23.1661,48.7885],[23.5776,48.7264],[24.133,48.4063],[24.3932,48.3489],[24.5783,48.0753],[24.5127,47.9554],[24.6703,47.8957],[25.0205,48.142],[25.0818,48.2643],[25.3262,48.3254],[25.4076,48.529],[25.5705,48.6719],[25.9175,48.631],[26.1714,48.5313],[26.366,48.5088],[26.2359,48.8078],[26.2021,49.0184],[26.2021,49.5073],[26.2433,49.7316],[26.1386,49.9436],[26.3068,50.1918],[26.6897,50.4189],[27.1848,50.5021],[27.2715,50.6229],[27.2429,50.8731],[27.4249,51.2205],[27.4598,51.4325],[27.7052,51.5529],[27.5137,51.6337],[27.4069,51.7456],[27.6121,52.0305],[27.4661,52.291],[27.6386,52.5218],[27.2736,52.6036],[27.1033,52.8288],[26.9161,52.8697],[26.787,53.0648],[26.9087,53.1988],[26.9425,53.456],[26.9203,53.8062],[27.2165,54.0634],[27.3001,54.2388],[27.5074,54.3271],[27.5148,54.5768],[27.8787,54.9308],[28.2584,55.0582],[28.4002,55.3314],[28.1389,55.6614],[27.6555,55.7827],[27.5962,55.7879],[27.5307,55.785],[26.8854,55.7451],[26.5279,55.6858],[26.6188,55.6816],[26.4644,55.3389],[26.7838,55.2547],[26.512,55.1504],[26.2803,55.1456],[26.1608,54.9773],[25.9122,54.9538],[25.7366,54.7883],[25.7631,54.5824],[25.5547,54.3624],[25.7123,54.3314],[25.7853,54.1645],[25.5399,54.1457],[25.5007,54.3032],[25.0776,54.1363],[24.8481,54.1433],[24.8269,53.9844],[24.6122,53.9924],[24.3921,53.8904],[24.1499,53.9651],[23.9479,53.9407],[23.7797,53.9355],[23.6277,53.9455],[23.4,53.9],[23.15,53.87],[22.98,53.84],[22.8,53.8],[22.7163,53.8048],[22.7081,53.7818],[22.4426,53.7052],[21.8831,53.4746],[21.86,53.44],[21.85,53.33]]]]}},{"type":"Feature","properties":{"id":"general-government","approx":"line","label":[21.208,50.951],"rank":-12},"geometry":{"type":"MultiPolygon","coordinates":[[[[18.98,50.84],[19.05,50.72],[19.2,50.62],[19.38,50.56],[19.55,50.45],[19.65,50.35],[19.62,50.2],[19.55,50.1],[19.58,49.98],[19.57,49.85],[19.6,49.72],[19.52,49.57],[19.5102,49.5323],[19.577,49.4589],[19.778,49.4076],[19.8425,49.1919],[20.3608,49.3931],[20.7406,49.3888],[20.914,49.2962],[21.0717,49.4222],[21.6122,49.4363],[21.9581,49.3404],[22.03,49.2201],[22.5632,49.0833],[22.6809,49.0525],[22.62,49.22],[22.55,49.33],[22.45,49.39],[22.33,49.47],[22.21,49.56],[22.18,49.65],[22.17,49.75],[22.23,49.82],[22.39,49.83],[22.55,49.78],[22.65,49.77],[22.78,49.79],[22.83,49.95],[22.85,50],[22.8,50.12],[22.95,50.2],[23.2,50.25],[23.55,50.3],[23.7,50.38],[23.95,50.43],[24.2,50.47],[24.15,50.58],[24.1,50.72],[24.15,50.85],[24.08,50.92],[23.95,51.05],[23.8,51.17],[23.7,51.3],[23.65,51.4],[23.55,51.55],[23.6,51.65],[23.55,51.76],[23.62,51.8],[23.6,51.91],[23.65,51.95],[23.62,52.08],[23.45,52.15],[23.22,52.19],[23.15,52.25],[23.04,52.33],[22.85,52.36],[22.66,52.4],[22.58,52.45],[22.45,52.57],[22.32,52.67],[22.2,52.66],[22.08,52.7],[22.06,52.8],[22.032,52.8701],[22.03,52.87],[21.85,52.88],[21.65,52.85],[21.5,52.78],[21.35,52.68],[21.2,52.58],[21.05,52.51],[20.9,52.45],[20.7,52.44],[20.5,52.4],[20.19,52.39],[20.1,52.33],[19.95,52.27],[19.85,52.15],[19.8,52.03],[19.78,51.9],[19.85,51.8],[19.88,51.7],[19.82,51.6],[19.7,51.5],[19.6,51.42],[19.52,51.3],[19.4,51.15],[19.28,51.05],[19.1,50.92],[18.98,50.84]]]]}},{"type":"Feature","properties":{"id":"italian-zone","approx":"admin","label":[5.861,44.852],"rank":-5},"geometry":{"type":"MultiPolygon","coordinates":[[[[4.6575,44.3268],[4.6859,44.3297],[4.7163,44.3293],[4.7438,44.3263],[4.774,44.3108],[4.7871,44.2959],[4.8096,44.2491],[4.8223,44.2384],[4.8448,44.2388],[4.8729,44.2533],[4.8914,44.259],[4.9187,44.2609],[4.9457,44.2679],[4.9845,44.282],[5.0523,44.2962],[5.1111,44.2882],[5.1393,44.2929],[5.1598,44.3074],[5.1745,44.2971],[5.1628,44.2761],[5.1635,44.2474],[5.1775,44.2339],[5.1927,44.2287],[5.223,44.2244],[5.2691,44.2272],[5.3387,44.2087],[5.3619,44.2079],[5.3789,44.2021],[5.3932,44.1694],[5.4091,44.1567],[5.426,44.1513],[5.4624,44.1282],[5.4713,44.1249],[5.5062,44.1218],[5.5026,44.0634],[5.5185,44.0667],[5.5377,44.0609],[5.544,44.0498],[5.5385,44.0212],[5.5084,43.9696],[5.508,43.9578],[5.5171,43.9469],[5.5301,43.943],[5.5619,43.9429],[5.5768,43.9362],[5.5862,43.9216],[5.5894,43.9043],[5.5855,43.8897],[5.5474,43.8382],[5.5447,43.8176],[5.6094,43.835],[5.6628,43.8121],[5.7538,43.7321],[5.774,43.726],[5.7948,43.6964],[5.8132,43.6891],[5.7908,43.6612],[5.7073,43.6435],[5.6809,43.6108],[5.682,43.5838],[5.6965,43.5703],[5.7143,43.5622],[5.7251,43.5514],[5.7258,43.537],[5.7107,43.498],[5.7134,43.4767],[5.7789,43.4101],[5.7542,43.4045],[5.7057,43.4067],[5.6827,43.3991],[5.6974,43.372],[5.7009,43.3585],[5.6879,43.3319],[5.691,43.313],[5.7203,43.3132],[5.7482,43.2987],[5.761,43.2786],[5.7455,43.2622],[5.712,43.2495],[5.6919,43.2357],[5.6802,43.2144],[5.6747,43.191],[5.6784,43.1906],[5.8169,43.1177],[6.0623,43.1013],[6.5278,43.1892],[6.6367,43.3109],[6.8885,43.4346],[7.1561,43.6607],[7.5316,43.782],[7.4967,43.8746],[7.7072,44.0834],[7.6152,44.1802],[7.3508,44.1313],[7.0313,44.247],[6.8779,44.3753],[6.8525,44.5408],[7.0313,44.8314],[6.7489,44.9183],[6.6304,45.1205],[7.1276,45.2592],[7.1466,45.4308],[6.8102,45.7298],[6.8134,45.8342],[7.0376,45.9319],[6.7838,46.1548],[6.7986,46.4284],[6.5151,46.4585],[6.2398,46.398],[6.22,46.2],[6.12,46.14],[5.98,46.13],[5.9655,46.1416],[5.9588,46.1305],[5.9448,46.1271],[5.9233,46.1296],[5.9055,46.1226],[5.8862,46.0993],[5.8716,46.0933],[5.8459,46.111],[5.8252,46.0953],[5.8242,46.0502],[5.8391,45.9706],[5.8404,45.9388],[5.8319,45.8982],[5.7996,45.8319],[5.7841,45.7973],[5.7774,45.7568],[5.7703,45.7368],[5.7591,45.7207],[5.7323,45.71],[5.6941,45.6871],[5.6605,45.6571],[5.6409,45.6458],[5.6199,45.6437],[5.6005,45.6556],[5.5659,45.7014],[5.547,45.7196],[5.4777,45.7641],[5.4502,45.793],[5.433,45.8311],[5.4302,45.8443],[5.3849,45.8739],[5.369,45.88],[5.3335,45.868],[5.3188,45.854],[5.2729,45.7998],[5.2573,45.7897],[5.2392,45.7857],[5.2199,45.7888],[5.1911,45.8029],[5.1669,45.809],[5.1338,45.8227],[5.1024,45.8262],[5.0976,45.8121],[5.0713,45.778],[5.0715,45.7623],[5.0826,45.7504],[5.1458,45.725],[5.1569,45.715],[5.1545,45.7003],[5.1305,45.7003],[5.1031,45.6901],[5.057,45.6602],[5.0491,45.6511],[5.0348,45.6221],[5.0143,45.6124],[4.8197,45.6004],[4.8062,45.5927],[4.8393,45.5729],[4.87,45.5497],[4.8547,45.515],[4.7864,45.4731],[4.76,45.4445],[4.7554,45.4021],[4.7698,45.3657],[4.7759,45.3372],[4.7835,45.3249],[4.799,45.3134],[4.8114,45.2963],[4.8115,45.2287],[4.8141,45.1974],[4.8273,45.1579],[4.8224,45.1328],[4.8228,45.1112],[4.8447,45.101],[4.8411,45.0883],[4.8584,45.0656],[4.8585,45.0538],[4.851,45.0215],[4.8574,45.0023],[4.8859,44.9667],[4.8926,44.9495],[4.8886,44.9322],[4.8686,44.8848],[4.8581,44.8711],[4.8306,44.8509],[4.8283,44.837],[4.8032,44.8205],[4.7776,44.7954],[4.7712,44.7794],[4.769,44.7547],[4.773,44.7415],[4.7912,44.7128],[4.7964,44.6964],[4.7895,44.6585],[4.7666,44.6315],[4.74,44.6063],[4.7213,44.5734],[4.7034,44.4747],[4.6996,44.4655],[4.677,44.4372],[4.6703,44.4209],[4.6735,44.4152],[4.666,44.3917],[4.6575,44.3268]],[[4.8819,44.3415],[4.8887,44.356],[4.9384,44.4164],[4.9637,44.4289],[4.9924,44.4231],[5.0322,44.3935],[5.0434,44.3777],[5.0434,44.3679],[5.0219,44.3518],[5.0012,44.3229],[4.9806,44.3125],[4.897,44.3124],[4.8826,44.3232],[4.8819,44.3415]]]]}},{"type":"Feature","properties":{"id":"luxembourg","approx":null,"label":[6.028,49.85],"rank":0},"geometry":{"type":"MultiPolygon","coordinates":[[[[5.7344,49.835],[5.9005,49.6404],[5.8011,49.544],[5.9798,49.4486],[6.2411,49.5068],[6.3617,49.4594],[6.4294,49.8087],[6.2527,49.8825],[6.1258,50.1279],[5.9735,50.1702],[5.7344,49.835]]]]}},{"type":"Feature","properties":{"id":"memel","approx":"line","label":[21.408,55.366],"rank":0},"geometry":{"type":"MultiPolygon","coordinates":[[[[21.0699,55.86],[21.0769,55.7328],[21.1446,55.6778],[21.1975,55.5749],[21.2462,55.4668],[21.2716,55.2481],[21.5456,55.1997],[22.0597,55.0286],[22.5346,55.0624],[22.6,55.0274],[22.6,55.06],[22.4,55.08],[22.15,55.15],[21.95,55.22],[21.68,55.3],[21.62,55.42],[21.4,55.55],[21.3,55.7],[21.22,55.8],[21.07,55.86],[21.0699,55.86]]]]}},{"type":"Feature","properties":{"id":"netherlands","approx":null,"label":[6.296,52.881],"rank":-4},"geometry":{"type":"MultiPolygon","coordinates":[[[[3.3713,51.3738],[3.952,51.2144],[4.2387,51.3502],[3.3713,51.3738]]],[[[3.5384,51.456],[4.2524,51.3752],[4.3952,51.4513],[4.648,51.4231],[4.7665,51.4998],[5.2394,51.2623],[5.508,51.2943],[5.8476,51.1533],[5.6519,50.8749],[5.6953,50.7593],[6.0116,50.7574],[6.0803,50.9149],[5.8645,51.0451],[6.0951,51.1387],[6.2221,51.3634],[6.2051,51.5134],[5.9714,51.8082],[6.1819,51.8951],[6.3511,51.8481],[6.7753,51.9205],[6.7594,52.1147],[7.0472,52.2388],[7.063,52.3911],[6.7584,52.4612],[6.7658,52.6511],[7.0334,52.6332],[7.2111,53.0089],[7.208,53.2425],[6.697,53.4621],[5.891,53.3822],[5.4626,53.2284],[5.3875,53.0982],[5.0468,52.9379],[4.739,52.9567],[4.5825,52.4772],[5.0236,52.3756],[5.0299,52.6243],[5.196,52.7555],[5.1008,52.9482],[5.3695,53.0705],[5.4118,52.8537],[5.672,52.6079],[5.855,52.6069],[5.8783,52.5096],[5.7704,52.4038],[5.5292,52.2656],[5.4224,52.2491],[5.2954,52.2995],[4.574,52.4546],[4.4418,52.2524],[4.1435,51.999],[4.0208,51.7922],[3.9975,51.59],[3.5712,51.5966],[3.5384,51.456]]],[[[5.1368,52.3817],[5.4012,52.2694],[5.5451,52.3469],[5.7915,52.4264],[5.8339,52.5651],[5.6434,52.6013],[5.1368,52.3817]]]]}},{"type":"Feature","properties":{"id":"norway","approx":null,"label":[8.011,60.672],"rank":-58},"geometry":{"type":"MultiPolygon","coordinates":[[[[4.9495,61.4102],[4.9527,61.256],[5.1156,61.1418],[4.9834,60.9509],[5.0267,60.7435],[5.1981,60.5776],[5.7196,60.6744],[5.7069,60.4596],[5.1452,60.3609],[5.4065,60.131],[5.6413,60.146],[5.7439,59.6801],[5.4816,59.7281],[5.1822,59.4996],[5.2817,59.351],[5.5366,59.2828],[5.8529,59.344],[6.1269,59.2593],[5.8698,59.0656],[5.5588,59.0304],[5.4604,58.7502],[5.6233,58.5574],[5.9629,58.4662],[6.0116,58.3797],[6.3543,58.2706],[6.7605,58.2438],[6.7817,58.1113],[7.1519,58.0478],[7.6216,58.0196],[8.2139,58.1202],[8.5101,58.2702],[8.9999,58.5997],[9.1839,58.6552],[9.4093,58.8414],[9.7869,59.036],[9.9551,58.9519],[10.2312,59.0388],[10.3698,59.2654],[10.6596,59.3637],[10.7971,59.1865],[11.3546,59.1065],[11.4286,58.9876],[11.6243,58.9067],[11.7904,59.3035],[11.6666,59.5936],[11.8994,59.6998],[11.8158,59.8461],[12.1352,59.8874],[12.4695,60.0698],[12.5912,60.5216],[12.2167,60.9988],[12.6303,61.0552],[12.8556,61.3627],[12.5266,61.5668],[12.1247,61.7285],[12.2939,62.2626],[12.0475,62.5898],[12.0284,62.8925],[12.1691,63.0157],[11.9364,63.2724],[12.1945,63.4854],[12.1469,63.5897],[12.6335,63.9428],[13.2301,64.0933],[13.9854,64.0157],[14.1504,64.1798],[14.1165,64.4708],[13.668,64.5803],[14.3196,65.1299],[14.4931,65.3137],[14.5005,65.5859],[14.6327,65.8219],[14.5069,66.1238],[15.0252,66.1501],[15.4684,66.2841],[15.3626,66.4801],[15.626,66.6057],[16.01,66.891],[16.3538,67.018],[16.4025,67.1708],[16.0883,67.4054],[16.5738,67.6611],[16.7272,67.899],[17.2741,68.0904],[17.8845,67.9455],[18.1553,68.166],[18.0495,68.4002],[18.3584,68.5393],[18.9518,68.4876],[19.9313,68.3372],[20.2042,68.4707],[19.9567,68.544],[20.3502,68.7866],[20.3143,68.9281],[20.6073,69.0612],[21.0336,69.0334],[21.0473,69.2238],[21.3213,69.3263],[21.682,69.2845],[22.5505,68.7377],[23.1968,68.6301],[24.061,68.8186],[24.3541,68.71],[25.0765,68.6216],[25.1696,68.789],[25.7609,68.9892],[25.7081,69.2088],[25.945,69.6653],[26.4771,69.9366],[27.0462,69.9079],[27.5994,70.0724],[27.9919,69.9977],[28.4055,69.8219],[29.1026,69.7062],[29.2983,69.4852],[28.8254,69.2361],[28.9577,69.0518],[29.2549,69.1199],[29.3141,69.316],[30.098,69.5031],[30.8638,69.5365],[30.8543,69.7922],[29.7711,69.8346],[29.6399,69.9737],[30.3201,70.1157],[30.5296,70.2417],[31.0733,70.2854],[30.9389,70.45],[29.7732,70.733],[29.3469,70.6643],[29.2507,70.843],[28.854,70.8806],[28.5441,70.7391],[28.3314,70.4739],[28.1082,70.4885],[28.1199,70.733],[28.5441,70.9742],[28.2077,71.0799],[27.4672,71.0052],[27.0906,70.7057],[27.0293,70.4739],[26.513,70.4293],[26.7341,70.8961],[26.5236,70.9257],[25.4298,70.323],[25.2606,70.0997],[24.9433,70.0917],[25.0903,70.5064],[25.9217,70.8604],[25.4425,70.9535],[24.5751,70.9347],[24.2641,70.8345],[24.2959,70.6681],[23.8135,70.4843],[23.3311,70.2196],[23.4697,69.9841],[23.1672,69.9577],[22.9577,70.2041],[21.9867,70.3188],[21.5159,70.3037],[21.2123,70.2083],[21.8079,70.0405],[22.0999,69.7438],[21.2483,69.9977],[21.0484,69.7889],[20.8051,69.8054],[20.3174,69.6738],[20.0466,69.7998],[19.2723,69.7758],[18.8502,69.5501],[18.1732,69.4321],[17.9966,69.2803],[18.1479,69.15],[17.6369,69.1035],[17.2392,68.7532],[16.6246,68.6385],[16.5474,68.3964],[16.1063,68.2709],[16.4839,68.1811],[15.9614,68.0132],[15.2621,67.8609],[14.7565,67.8026],[14.8443,67.6386],[14.5397,67.2465],[14.2223,66.9761],[13.2872,66.7208],[13.1613,66.3969],[13.3676,66.2413],[12.8398,66.1275],[12.9254,65.9856],[12.6472,65.8995],[12.3553,65.6409],[12.5615,65.5046],[12.5383,65.3777],[12.3362,65.2921],[12.4209,65.0843],[11.9755,65.066],[11.4276,64.9235],[11.3969,64.6696],[11.5386,64.5634],[11.3451,64.389],[11.0658,64.5197],[10.5887,64.4313],[10.1656,64.1896],[9.862,63.8859],[9.5457,63.766],[9.9223,63.5065],[10.393,63.5691],[10.9664,63.7007],[10.7781,63.4821],[10.5506,63.4308],[9.9583,63.4337],[9.7171,63.6302],[9.4167,63.5338],[8.6413,63.3956],[8.4794,63.2917],[8.6318,63.1826],[7.9749,63.0806],[7.9844,62.9725],[7.4449,62.9146],[7.2651,63.0115],[6.9498,62.9316],[6.9541,62.7242],[6.3321,62.6076],[6.2929,62.3702],[5.6836,62.1723],[5.1939,62.2014],[5.0955,62.1102],[5.3991,62.019],[5.4171,61.9114],[4.9834,61.7398],[5.1918,61.6269],[5.1886,61.4991],[4.9495,61.4102]]],[[[8.4995,63.429],[9.1702,63.5587],[8.9713,63.6537],[8.6148,63.609],[8.4995,63.429]]],[[[12.149,65.231],[12.5023,65.3918],[12.222,65.5417],[12.149,65.231]]],[[[14.3048,68.3052],[14.5323,68.2004],[15.0305,68.3574],[14.6338,68.4246],[14.3048,68.3052]]],[[[14.3736,68.6865],[15.0643,68.5736],[15.4028,68.702],[15.3785,68.8473],[15.0051,68.9545],[14.3736,68.6865]]],[[[15.2177,68.5586],[15.5107,68.4462],[15.8556,68.4321],[16.5008,68.5525],[16.5442,68.7641],[15.9042,68.9587],[15.6324,68.9441],[15.4578,68.6569],[15.2177,68.5586]]],[[[16.9356,69.3945],[17.0044,69.1298],[17.5227,69.1905],[17.8623,69.1627],[18.0802,69.4251],[17.6687,69.5464],[17.291,69.4077],[16.9356,69.3945]]],[[[18.1923,69.7062],[18.2335,69.5299],[18.7307,69.5572],[18.8904,69.6921],[18.6345,69.7631],[18.1923,69.7062]]],[[[18.7233,69.9413],[19.0946,69.7932],[19.4109,69.8355],[19.3337,70.0104],[18.7233,69.9413]]],[[[22.8509,70.4058],[23.0878,70.2868],[23.6443,70.4382],[23.5935,70.5807],[23.1841,70.5463],[22.8509,70.4058]]]]}},{"type":"Feature","properties":{"id":"occupied-france","approx":"line","label":[4.011,48.29],"rank":-33},"geometry":{"type":"MultiPolygon","coordinates":[[[[-4.7601,48.3348],[-4.3137,48.2027],[-4.4195,47.961],[-4.1826,47.804],[-3.9827,47.8896],[-3.8409,47.8031],[-3.5088,47.7584],[-3.093,47.5859],[-2.6858,47.5957],[-2.4837,47.4975],[-2.5398,47.2982],[-2.2817,47.2403],[-1.9855,47.0368],[-2.105,46.8116],[-1.8607,46.6376],[-1.7866,46.4881],[-1.2662,46.3048],[-1.0525,46.0387],[-1.0705,45.9037],[-1.2292,45.7881],[-0.8039,45.4872],[-1.1403,45.4938],[-1.2471,44.7575],[-1.2091,44.6259],[-1.4439,43.6405],[-1.5899,43.4374],[-1.7813,43.3598],[-1.409,43.2729],[-1.3,43.0716],[-1.2695,43.0617],[-1.1,43.25],[-0.85,43.42],[-0.62,43.55],[-0.4,43.68],[-0.2,43.85],[-0.12,44.05],[-0.18,44.3],[-0.2,44.5],[-0.1,44.7],[-0.02,44.85],[0.1,45],[0.15,45.2],[0.2,45.4],[0.28,45.6],[0.45,45.85],[0.6,46.05],[0.62,46.25],[0.68,46.45],[0.7,46.7],[0.7,46.95],[0.9,47.15],[1.07,47.3],[1.2,47.32],[1.38,47.27],[1.8,47.27],[2.07,47.22],[2.4,47.25],[2.7,47.15],[2.95,47],[3.1,46.85],[3.3,46.6],[3.6,46.5],[3.95,46.48],[4.2,46.55],[4.5,46.68],[4.85,46.78],[5.35,46.72],[5.6,46.75],[5.85,46.6],[5.8,46.45],[5.83,46.25],[5.98,46.13],[6.12,46.14],[6.22,46.2],[6.2398,46.398],[6.1533,46.379],[6.129,46.5882],[6.4569,46.7815],[6.4601,46.8957],[6.9721,47.292],[6.99,47.497],[7.1466,47.4989],[7.1468,47.4989],[7.1505,47.508],[7.1487,47.532],[7.1342,47.5497],[7.0798,47.5909],[7.0564,47.5966],[7.0373,47.5959],[7.0234,47.606],[7.0265,47.6236],[7.0531,47.6531],[7.0588,47.6802],[7.0503,47.7156],[7.0237,47.7357],[6.8827,47.791],[6.8702,47.8023],[6.8689,47.819],[6.9078,47.8307],[6.9239,47.8432],[6.9254,47.8528],[6.917,47.8683],[6.917,47.883],[6.9344,47.9027],[6.9448,47.9266],[6.9476,47.9483],[6.9598,47.9675],[7.0085,48.0103],[7.0281,48.034],[7.0594,48.0847],[7.0812,48.1046],[7.0869,48.1254],[7.0767,48.1397],[7.0749,48.1525],[7.0832,48.1645],[7.2087,48.3034],[7.209,48.3153],[7.1885,48.331],[7.1758,48.3334],[7.1442,48.3321],[7.1099,48.3423],[7.1043,48.3526],[7.1158,48.3779],[7.1268,48.4473],[7.1277,48.4841],[7.1489,48.4999],[7.0887,48.5234],[6.9704,48.611],[6.9254,48.6264],[6.8684,48.6201],[6.7069,48.6681],[6.6665,48.6948],[6.6244,48.7046],[6.5989,48.7157],[6.566,48.7519],[6.5576,48.755],[6.5207,48.7545],[6.4973,48.7611],[6.4537,48.7831],[6.4332,48.7891],[6.3914,48.7798],[6.3715,48.7802],[6.3127,48.8331],[6.2983,48.8591],[6.303,48.8815],[6.32,48.8984],[6.3228,48.909],[6.3087,48.9246],[6.2875,48.9313],[6.1432,48.9346],[6.1285,48.9421],[6.1172,48.9602],[6.1085,48.9663],[6.0634,48.976],[6.0481,48.9874],[6.045,49.0076],[6.0344,49.0201],[5.9674,49.0415],[5.9543,49.0526],[5.935,49.084],[5.9347,49.0986],[5.9495,49.1077],[5.9921,49.1185],[6.0094,49.1309],[6.0155,49.152],[5.9945,49.1843],[5.9865,49.2007],[5.9958,49.2132],[6.0119,49.2224],[6.0197,49.2323],[6.0197,49.2443],[6.009,49.2687],[6.004,49.2931],[5.9961,49.3048],[5.9701,49.3178],[5.9569,49.3471],[5.9456,49.3591],[5.9275,49.3701],[5.9249,49.3896],[5.9422,49.4303],[5.9376,49.456],[5.9309,49.4747],[5.9119,49.4848],[5.8647,49.4922],[5.8396,49.4999],[5.8253,49.5086],[5.8348,49.5209],[5.8385,49.524],[5.8011,49.544],[5.5229,49.5101],[5.4329,49.6037],[4.9908,49.8035],[4.8205,49.993],[4.4576,49.9394],[4.2485,49.987],[4.2509,49.9682],[4.2477,49.9574],[4.2159,49.9544],[4.1877,49.9555],[4.1317,49.975],[4.0994,49.969],[4.0811,49.9709],[3.9969,49.9921],[3.985,50.0006],[3.9859,50.0306],[3.9749,50.0414],[3.9425,50.0384],[3.9057,50.0217],[3.8861,50.0209],[3.8634,50.0397],[3.8539,50.043],[3.7516,50.0512],[3.7083,50.0592],[3.6832,50.0593],[3.6295,50.038],[3.5971,50.04],[3.5735,50.0489],[3.5547,50.0495],[3.5268,50.0363],[3.501,50.0296],[3.4779,50.0191],[3.4486,50.0154],[3.4078,50.0224],[3.3837,50.0301],[3.362,50.0324],[3.3301,50.0198],[3.3162,50.0183],[3.2571,50.0283],[3.2259,50.029],[3.157,50.0187],[3.0883,50.05],[3.0318,50.0726],[2.9896,50.0766],[2.9736,50.0678],[2.9759,50.0531],[2.9646,50.0381],[2.9451,50.0352],[2.9063,50.0343],[2.8888,50.0296],[2.8682,50.0185],[2.8524,50.0206],[2.8489,50.0285],[2.8493,50.0575],[2.8403,50.0689],[2.8229,50.0684],[2.7868,50.0473],[2.7663,50.0384],[2.7474,50.0401],[2.7427,50.0477],[2.7639,50.072],[2.7628,50.0846],[2.7534,50.0985],[2.7284,50.1211],[2.7106,50.1286],[2.6991,50.1205],[2.696,50.0945],[2.6988,50.0842],[2.6768,50.0799],[2.6499,50.0919],[2.6285,50.0975],[2.5849,50.1027],[2.5678,50.112],[2.5743,50.1294],[2.55,50.1344],[2.5188,50.1234],[2.4812,50.1276],[2.458,50.1276],[2.433,50.1193],[2.4203,50.101],[2.3959,50.096],[2.3801,50.1098],[2.3748,50.1358],[2.3941,50.1594],[2.4154,50.1706],[2.4484,50.1828],[2.4679,50.1942],[2.456,50.2087],[2.4103,50.2248],[2.3836,50.2261],[2.3718,50.2168],[2.3549,50.2165],[2.3329,50.2379],[2.3157,50.2372],[2.3098,50.224],[2.2885,50.2178],[2.266,50.2167],[2.2404,50.2102],[2.2,50.2097],[2.1745,50.2054],[2.1129,50.2031],[2.0852,50.2079],[2.0693,50.2185],[2.0578,50.2352],[2.0566,50.2485],[2.0281,50.2644],[1.936,50.2964],[1.9351,50.3021],[1.9521,50.3199],[1.9386,50.329],[1.9215,50.3276],[1.8986,50.3141],[1.8871,50.3138],[1.8599,50.3266],[1.8384,50.3454],[1.8196,50.3547],[1.7826,50.3573],[1.7418,50.354],[1.6806,50.3387],[1.6537,50.339],[1.6309,50.3477],[1.6039,50.369],[1.595,50.3727],[1.572,50.3757],[1.5515,50.3491],[1.5431,50.31],[1.5428,50.303],[1.5255,50.3166],[1.5053,50.2022],[1.4386,50.1006],[1.0716,49.9267],[0.64,49.866],[0.1693,49.6888],[0.0709,49.3555],[-0.2285,49.2835],[-0.4178,49.3414],[-1.1096,49.3696],[-1.245,49.4753],[-1.3762,49.7067],[-1.6206,49.6554],[-1.8448,49.7137],[-1.8088,49.3762],[-1.61,49.2149],[-1.5624,48.749],[-1.6407,48.6164],[-2.0395,48.5981],[-2.3071,48.6761],[-2.6858,48.5017],[-3.1248,48.8651],[-3.5786,48.7861],[-3.5828,48.678],[-3.9932,48.7227],[-4.5391,48.6357],[-4.7284,48.5591],[-4.7601,48.3348]]],[[[9,41.4649],[9.2199,41.3674],[9.3987,41.6988],[9.4251,41.9748],[9.5521,42.1182],[9.5076,42.5728],[9.4473,42.6828],[9.46,42.988],[9.3469,43.0002],[9.3416,42.7383],[9.1173,42.7294],[9,42.6826],[9,41.4649]]]]}},{"type":"Feature","properties":{"id":"occupied-poland","approx":"line","label":[20.706,51.323],"rank":-24},"geometry":{"type":"MultiPolygon","coordinates":[[[[15.7921,52.4607],[15.8926,52.0728],[16.0365,52.0475],[16.3803,51.8035],[16.5495,51.7847],[16.8563,51.5905],[17.5195,51.6154],[17.8453,51.1335],[18.1775,51.165],[18.4282,51.1086],[18.6027,50.9897],[18.7349,50.7828],[18.5784,50.6201],[18.7593,50.5825],[18.9349,50.3446],[18.6778,50.2196],[18.2589,50.1317],[18.2949,49.9521],[18.5784,49.9098],[18.6345,49.7377],[18.8111,49.6733],[18.8513,49.5224],[18.9751,49.402],[19.1919,49.4142],[19.4479,49.6009],[19.577,49.4589],[19.778,49.4076],[19.8425,49.1919],[20.3608,49.3931],[20.7406,49.3888],[20.914,49.2962],[21.0717,49.4222],[21.6122,49.4363],[21.9581,49.3404],[22.03,49.2201],[22.5632,49.0833],[22.6809,49.0525],[22.62,49.22],[22.55,49.33],[22.45,49.39],[22.33,49.47],[22.21,49.56],[22.18,49.65],[22.17,49.75],[22.23,49.82],[22.39,49.83],[22.55,49.78],[22.65,49.77],[22.78,49.79],[22.83,49.95],[22.85,50],[22.8,50.12],[22.95,50.2],[23.2,50.25],[23.55,50.3],[23.7,50.38],[23.95,50.43],[24.2,50.47],[24.15,50.58],[24.1,50.72],[24.15,50.85],[24.08,50.92],[23.95,51.05],[23.8,51.17],[23.7,51.3],[23.65,51.4],[23.55,51.55],[23.6,51.65],[23.55,51.76],[23.62,51.8],[23.6,51.91],[23.65,51.95],[23.62,52.08],[23.45,52.15],[23.22,52.19],[23.15,52.25],[23.04,52.33],[22.85,52.36],[22.66,52.4],[22.58,52.45],[22.45,52.57],[22.32,52.67],[22.2,52.66],[22.08,52.7],[22.06,52.8],[22,52.95],[21.92,53.1],[21.88,53.23],[21.85,53.33],[21.86,53.44],[21.8831,53.4746],[21.8618,53.4659],[21.3012,53.4555],[20.9246,53.2975],[20.5216,53.3384],[20.4359,53.2468],[20.2931,53.2364],[19.9409,53.4555],[19.7991,53.6135],[18.7614,53.6008],[18.864,53.9228],[18.7815,54.1508],[18.4779,54.1043],[18.2198,54.2312],[18.5953,54.4278],[18.5668,54.5505],[18.3362,54.8358],[18.0368,54.8335],[18.0082,54.5458],[17.5513,54.2515],[17.6454,54.0573],[17.2381,54.0761],[17.2318,53.9322],[17.4888,53.7381],[17.4264,53.5876],[17.1324,53.2623],[16.925,53.2374],[16.5305,52.8928],[16.0989,52.8989],[15.9423,52.849],[15.7921,52.4607]]],[[[22.56,54.2707],[22.6002,54.0723],[22.7642,53.9398],[22.7163,53.8048],[22.8,53.8],[22.98,53.84],[23.15,53.87],[23.4,53.9],[23.6277,53.9455],[23.5089,53.9534],[23.4581,54.1743],[22.9948,54.3859],[22.7811,54.3704],[22.56,54.2707]]]]}},{"type":"Feature","properties":{"id":"slovakia","approx":null,"label":[18.726,48.908],"rank":-4},"geometry":{"type":"MultiPolygon","coordinates":[[[[16.8446,48.3621],[17.1736,48.0165],[17.2455,48.0255],[17.1895,48.2657],[17.4761,48.3828],[17.8094,48.2398],[18.0368,48.2398],[18.3626,48.3701],[18.5456,48.2525],[18.7794,48.3569],[19.1062,48.3047],[19.3665,48.3569],[19.4839,48.5135],[19.6796,48.4222],[20.2074,48.748],[20.748,48.7607],[20.9955,48.9173],[21.1912,48.9695],[21.4779,48.9305],[21.6736,48.7349],[22.3114,48.6756],[22.5632,49.0833],[22.03,49.2201],[21.9581,49.3404],[21.6122,49.4363],[21.0717,49.4222],[20.914,49.2962],[20.7406,49.3888],[20.3608,49.3931],[19.8425,49.1919],[19.778,49.4076],[19.577,49.4589],[19.4479,49.6009],[19.1919,49.4142],[18.9751,49.402],[18.8513,49.5224],[18.5657,49.4937],[18.3827,49.3329],[18.2113,49.2864],[18.0749,49.0419],[17.712,48.8562],[17.1123,48.8317],[16.9462,48.6192],[16.8446,48.3621]]]]}},{"type":"Feature","properties":{"id":"southern-zone","approx":"line","label":[2.227,44.914],"rank":-21},"geometry":{"type":"MultiPolygon","coordinates":[[[[-1.2695,43.0617],[-0.9404,42.9541],[-0.7542,42.9644],[-0.5553,42.7802],[-0.312,42.8389],[0.0032,42.6861],[0.1809,42.7346],[0.6696,42.6932],[0.7162,42.8587],[1.3593,42.7153],[1.446,42.602],[1.7391,42.6165],[1.7232,42.5145],[2.0204,42.3528],[2.2733,42.4355],[2.5335,42.3331],[2.9503,42.4807],[3.1713,42.4355],[3.0582,42.5441],[2.9608,42.8422],[3.1407,43.1389],[3.3353,43.2653],[3.5469,43.3199],[4.0567,43.5629],[4.1974,43.4609],[4.5063,43.4628],[4.6523,43.3598],[5.0553,43.4741],[5.0394,43.3481],[5.3631,43.3316],[5.3631,43.2244],[5.6747,43.191],[5.6802,43.2144],[5.6919,43.2357],[5.712,43.2495],[5.7455,43.2622],[5.761,43.2786],[5.7482,43.2987],[5.7203,43.3132],[5.691,43.313],[5.6879,43.3319],[5.7009,43.3585],[5.6974,43.372],[5.6827,43.3991],[5.7057,43.4067],[5.7542,43.4045],[5.7789,43.4101],[5.7134,43.4767],[5.7107,43.498],[5.7258,43.537],[5.7251,43.5514],[5.7143,43.5622],[5.6965,43.5703],[5.682,43.5838],[5.6809,43.6108],[5.7073,43.6435],[5.7908,43.6612],[5.8132,43.6891],[5.7948,43.6964],[5.774,43.726],[5.7538,43.7321],[5.6628,43.8121],[5.6094,43.835],[5.5447,43.8176],[5.5474,43.8382],[5.5855,43.8897],[5.5894,43.9043],[5.5862,43.9216],[5.5768,43.9362],[5.5619,43.9429],[5.5301,43.943],[5.5171,43.9469],[5.508,43.9578],[5.5084,43.9696],[5.5385,44.0212],[5.544,44.0498],[5.5377,44.0609],[5.5185,44.0667],[5.5026,44.0634],[5.5062,44.1218],[5.4713,44.1249],[5.4624,44.1282],[5.426,44.1513],[5.4091,44.1567],[5.3932,44.1694],[5.3789,44.2021],[5.3619,44.2079],[5.3387,44.2087],[5.2691,44.2272],[5.223,44.2244],[5.1927,44.2287],[5.1775,44.2339],[5.1635,44.2474],[5.1628,44.2761],[5.1745,44.2971],[5.1598,44.3074],[5.1393,44.2929],[5.1111,44.2882],[5.0523,44.2962],[4.9845,44.282],[4.9457,44.2679],[4.9187,44.2609],[4.8914,44.259],[4.8729,44.2533],[4.8448,44.2388],[4.8223,44.2384],[4.8096,44.2491],[4.7871,44.2959],[4.774,44.3108],[4.7438,44.3263],[4.7163,44.3293],[4.6859,44.3297],[4.6575,44.3268],[4.666,44.3917],[4.6735,44.4152],[4.6703,44.4209],[4.677,44.4372],[4.6996,44.4655],[4.7034,44.4747],[4.7213,44.5734],[4.74,44.6063],[4.7666,44.6315],[4.7895,44.6585],[4.7964,44.6964],[4.7912,44.7128],[4.773,44.7415],[4.769,44.7547],[4.7712,44.7794],[4.7776,44.7954],[4.8032,44.8205],[4.8283,44.837],[4.8306,44.8509],[4.8581,44.8711],[4.8686,44.8848],[4.8886,44.9322],[4.8926,44.9495],[4.8859,44.9667],[4.8574,45.0023],[4.851,45.0215],[4.8585,45.0538],[4.8584,45.0656],[4.8411,45.0883],[4.8447,45.101],[4.8228,45.1112],[4.8224,45.1328],[4.8273,45.1579],[4.8141,45.1974],[4.8115,45.2287],[4.8114,45.2963],[4.799,45.3134],[4.7835,45.3249],[4.7759,45.3372],[4.7698,45.3657],[4.7554,45.4021],[4.76,45.4445],[4.7864,45.4731],[4.8547,45.515],[4.87,45.5497],[4.8393,45.5729],[4.8062,45.5927],[4.8197,45.6004],[5.0143,45.6124],[5.0348,45.6221],[5.0491,45.6511],[5.057,45.6602],[5.1031,45.6901],[5.1305,45.7003],[5.1545,45.7003],[5.1569,45.715],[5.1458,45.725],[5.0826,45.7504],[5.0715,45.7623],[5.0713,45.778],[5.0976,45.8121],[5.1024,45.8262],[5.1338,45.8227],[5.1669,45.809],[5.1911,45.8029],[5.2199,45.7888],[5.2392,45.7857],[5.2573,45.7897],[5.2729,45.7998],[5.3188,45.854],[5.3335,45.868],[5.369,45.88],[5.3849,45.8739],[5.4302,45.8443],[5.433,45.8311],[5.4502,45.793],[5.4777,45.7641],[5.547,45.7196],[5.5659,45.7014],[5.6005,45.6556],[5.6199,45.6437],[5.6409,45.6458],[5.6605,45.6571],[5.6941,45.6871],[5.7323,45.71],[5.7591,45.7207],[5.7703,45.7368],[5.7774,45.7568],[5.7841,45.7973],[5.7996,45.8319],[5.8319,45.8982],[5.8404,45.9388],[5.8391,45.9706],[5.8242,46.0502],[5.8252,46.0953],[5.8459,46.111],[5.8716,46.0933],[5.8862,46.0993],[5.9055,46.1226],[5.9233,46.1296],[5.9448,46.1271],[5.9588,46.1305],[5.9655,46.1416],[5.83,46.25],[5.8,46.45],[5.85,46.6],[5.6,46.75],[5.35,46.72],[4.85,46.78],[4.5,46.68],[4.2,46.55],[3.95,46.48],[3.6,46.5],[3.3,46.6],[3.1,46.85],[2.95,47],[2.7,47.15],[2.4,47.25],[2.07,47.22],[1.8,47.27],[1.38,47.27],[1.2,47.32],[1.07,47.3],[0.9,47.15],[0.7,46.95],[0.7,46.7],[0.68,46.45],[0.62,46.25],[0.6,46.05],[0.45,45.85],[0.28,45.6],[0.2,45.4],[0.15,45.2],[0.1,45],[-0.02,44.85],[-0.1,44.7],[-0.2,44.5],[-0.18,44.3],[-0.12,44.05],[-0.2,43.85],[-0.4,43.68],[-0.62,43.55],[-0.85,43.42],[-1.1,43.25],[-1.2695,43.0617]]],[[[4.8819,44.3415],[4.8826,44.3232],[4.897,44.3124],[4.9806,44.3125],[5.0012,44.3229],[5.0219,44.3518],[5.0434,44.3679],[5.0434,44.3777],[5.0322,44.3935],[4.9924,44.4231],[4.9637,44.4289],[4.9384,44.4164],[4.8887,44.356],[4.8819,44.3415]]]]}},{"type":"Feature","properties":{"id":"soviet-poland","approx":"line","label":[25.368,52.079],"rank":-25},"geometry":{"type":"MultiPolygon","coordinates":[[[[21.85,53.33],[21.88,53.23],[21.92,53.1],[22,52.95],[22.06,52.8],[22.08,52.7],[22.2,52.66],[22.32,52.67],[22.45,52.57],[22.58,52.45],[22.66,52.4],[22.85,52.36],[23.04,52.33],[23.15,52.25],[23.22,52.19],[23.45,52.15],[23.62,52.08],[23.65,51.95],[23.6,51.91],[23.62,51.8],[23.55,51.76],[23.6,51.65],[23.55,51.55],[23.65,51.4],[23.7,51.3],[23.8,51.17],[23.95,51.05],[24.08,50.92],[24.15,50.85],[24.1,50.72],[24.15,50.58],[24.2,50.47],[23.95,50.43],[23.7,50.38],[23.55,50.3],[23.2,50.25],[22.95,50.2],[22.8,50.12],[22.85,50],[22.83,49.95],[22.78,49.79],[22.65,49.77],[22.55,49.78],[22.39,49.83],[22.23,49.82],[22.17,49.75],[22.18,49.65],[22.21,49.56],[22.33,49.47],[22.45,49.39],[22.55,49.33],[22.62,49.22],[22.6809,49.0525],[22.8424,49.0104],[22.9609,48.8712],[23.1661,48.7885],[23.5776,48.7264],[24.133,48.4063],[24.3932,48.3489],[24.5783,48.0753],[24.5127,47.9554],[24.6703,47.8957],[25.0205,48.142],[25.0818,48.2643],[25.3262,48.3254],[25.4076,48.529],[25.5705,48.6719],[25.9175,48.631],[26.1714,48.5313],[26.366,48.5088],[26.2359,48.8078],[26.2021,49.0184],[26.2021,49.5073],[26.2433,49.7316],[26.1386,49.9436],[26.3068,50.1918],[26.6897,50.4189],[27.1848,50.5021],[27.2715,50.6229],[27.2429,50.8731],[27.4249,51.2205],[27.4598,51.4325],[27.7052,51.5529],[27.5137,51.6337],[27.4069,51.7456],[27.6121,52.0305],[27.4661,52.291],[27.6386,52.5218],[27.2736,52.6036],[27.1033,52.8288],[26.9161,52.8697],[26.787,53.0648],[26.9087,53.1988],[26.9425,53.456],[26.9203,53.8062],[27.2165,54.0634],[27.3001,54.2388],[27.5074,54.3271],[27.5148,54.5768],[27.8787,54.9308],[28.2584,55.0582],[28.4002,55.3314],[28.1389,55.6614],[27.6555,55.7827],[27.5962,55.7879],[27.5307,55.785],[26.8854,55.7451],[26.5279,55.6858],[26.6188,55.6816],[26.4644,55.3389],[26.7838,55.2547],[26.512,55.1504],[26.2803,55.1456],[26.1608,54.9773],[25.9122,54.9538],[25.7366,54.7883],[25.7631,54.5824],[25.5547,54.3624],[25.7123,54.3314],[25.7853,54.1645],[25.5399,54.1457],[25.5007,54.3032],[25.0776,54.1363],[24.8481,54.1433],[24.8269,53.9844],[24.6122,53.9924],[24.3921,53.8904],[24.1499,53.9651],[23.9479,53.9407],[23.7797,53.9355],[23.6277,53.9455],[23.4,53.9],[23.15,53.87],[22.98,53.84],[22.8,53.8],[22.7163,53.8048],[22.7081,53.7818],[22.4426,53.7052],[21.8831,53.4746],[21.86,53.44],[21.85,53.33]]]]}},{"type":"Feature","properties":{"id":"trans-olza","approx":"line","label":[18.663,49.617],"rank":0},"geometry":{"type":"MultiPolygon","coordinates":[[[[18.3,49.9],[18.37,49.86],[18.42,49.78],[18.47,49.7],[18.55,49.6],[18.5865,49.4958],[18.8513,49.5224],[18.8111,49.6733],[18.6345,49.7377],[18.5784,49.9098],[18.3,49.9513],[18.3,49.9]]]]}},{"type":"Feature","properties":{"id":"vichy-france","approx":"line","label":[2.227,44.914],"rank":-27},"geometry":{"type":"MultiPolygon","coordinates":[[[[-1.2695,43.0617],[-0.9404,42.9541],[-0.7542,42.9644],[-0.5553,42.7802],[-0.312,42.8389],[0.0032,42.6861],[0.1809,42.7346],[0.6696,42.6932],[0.7162,42.8587],[1.3593,42.7153],[1.446,42.602],[1.7391,42.6165],[1.7232,42.5145],[2.0204,42.3528],[2.2733,42.4355],[2.5335,42.3331],[2.9503,42.4807],[3.1713,42.4355],[3.0582,42.5441],[2.9608,42.8422],[3.1407,43.1389],[3.3353,43.2653],[3.5469,43.3199],[4.0567,43.5629],[4.1974,43.4609],[4.5063,43.4628],[4.6523,43.3598],[5.0553,43.4741],[5.0394,43.3481],[5.3631,43.3316],[5.3631,43.2244],[5.6784,43.1906],[5.8169,43.1177],[6.0623,43.1013],[6.5278,43.1892],[6.6367,43.3109],[6.8885,43.4346],[7.1561,43.6607],[7.5316,43.782],[7.4967,43.8746],[7.7072,44.0834],[7.6152,44.1802],[7.3508,44.1313],[7.0313,44.247],[6.8779,44.3753],[6.8525,44.5408],[7.0313,44.8314],[6.7489,44.9183],[6.6304,45.1205],[7.1276,45.2592],[7.1466,45.4308],[6.8102,45.7298],[6.8134,45.8342],[7.0376,45.9319],[6.7838,46.1548],[6.7986,46.4284],[6.5151,46.4585],[6.2398,46.398],[6.22,46.2],[6.12,46.14],[5.98,46.13],[5.83,46.25],[5.8,46.45],[5.85,46.6],[5.6,46.75],[5.35,46.72],[4.85,46.78],[4.5,46.68],[4.2,46.55],[3.95,46.48],[3.6,46.5],[3.3,46.6],[3.1,46.85],[2.95,47],[2.7,47.15],[2.4,47.25],[2.07,47.22],[1.8,47.27],[1.38,47.27],[1.2,47.32],[1.07,47.3],[0.9,47.15],[0.7,46.95],[0.7,46.7],[0.68,46.45],[0.62,46.25],[0.6,46.05],[0.45,45.85],[0.28,45.6],[0.2,45.4],[0.15,45.2],[0.1,45],[-0.02,44.85],[-0.1,44.7],[-0.2,44.5],[-0.18,44.3],[-0.12,44.05],[-0.2,43.85],[-0.4,43.68],[-0.62,43.55],[-0.85,43.42],[-1.1,43.25],[-1.2695,43.0617]]],[[[8.5704,42.2216],[8.6593,42.0082],[8.7809,41.9264],[8.7259,41.7294],[8.7904,41.5578],[9,41.4649],[9,42.6826],[8.7185,42.5705],[8.5757,42.3838],[8.5704,42.2216]]]]}},{"type":"Feature","properties":{"id":"vilnius","approx":"line","label":[25.28,54.634],"rank":-1},"geometry":{"type":"MultiPolygon","coordinates":[[[[23.9479,53.9407],[24.1499,53.9651],[24.3921,53.8904],[24.6122,53.9924],[24.8269,53.9844],[24.8481,54.1433],[25.0776,54.1363],[25.5007,54.3032],[25.5399,54.1457],[25.7853,54.1645],[25.7123,54.3314],[25.5547,54.3624],[25.7631,54.5824],[25.7366,54.7883],[25.9122,54.9538],[26.1608,54.9773],[26.2803,55.1456],[26.512,55.1504],[26.7838,55.2547],[26.4644,55.3389],[26.6188,55.6816],[26.5279,55.6858],[26.5056,55.683],[26.3449,55.621],[25.9186,55.2303],[25.5748,55.045],[25.0395,54.9867],[24.8089,54.6492],[24.8216,54.5425],[24.6249,54.2439],[23.9479,53.9407]]]]}}]}